College Name,Region,Region Type,Location,District,Contact Number,Email Address,Website Link,Registrar Name,Registrar Contact Number,Status,Autonomous Status
"Government College of Engineering, Amravati",Amravati,Urban,"VMV Road, Near Kathora Naka,  Amravati",Amravati,2531930,principal@gcoea.ac.in,www.gcoea.ac.in,P. P. Bhatkar,2531929,Government,Autonomous
"Government Engineering College, Yavatmal",Amravati,Urban,"Post Box N. 24, Dhamangaon Road, Yavatmal ",Yavatmal,07232238,office.gpyavatmal@dtemaharashtra.gov.in,www.gpyavatmal.edu.in,Mahejabin M. Mujawar,07232243,Government,Non-Autonomous
"Shri Sant Gajanan Maharaj College of Engineering,Shegaon",Amravati,Rural,"S.S.G.M.C.E Campus, Khamgaon Road, Shegaon Dist. Buldhana",Buldhana,252216,principal@ssgmce.ac.in,www.ssgmce.org,PROF. A.V. PATIL,8669638081,Un-Aided,Non-Autonomous
"Prof. Ram Meghe Institute of Technology & Research, Amravati",Amravati,Urban,"Anjangaon Bari Road, Badnera,  Amravati",Amravati,2681246,principal@mitra.ac.in,www.mitra.ac.in,Mr. R. V. Adwanikar,2681246,Un-Aided,Non-Autonomous
"Sipna Shikshan Prasarak Mandal College of Engineering & Technology, Amravati",Amravati,Urban,"Sipna campus, Infront of Nemani Godown, Badnera Rd., Amravati",Amravati,2522343,sipnaoffice@gmail.com,www.sipnaengg.ac.in,Shyamsundar Bhojraj Gupta,2522342,Un-Aided,Non-Autonomous
"Shri Shivaji Education Society's College of Engineering and Technology, Akola",Amravati,Rural,"Babhulgaon(Jn), Murtizapur Road, National Highway No. 6, Akola",Akola,2456688,principalcoeta@gmail.com,www.coeta.ac.in,Mr. N. B. Gawande,2259069,Un-Aided,Non-Autonomous
"Janata Shikshan Prasarak Mandal’s Babasaheb Naik College Of Engineering, Pusad",Amravati,Rural,"Kalra Road, Pusad  Dist Yavatmal ",Yavatmal,245229,principal@bncoepusad.ac.in,www.bncoepusad.ac.in,---,245229,Un-Aided,Non-Autonomous
"Paramhansa Ramkrishna Maunibaba Shikshan Santha's , Anuradha Engineering College, Chikhali",Amravati,Rural,"Anuradhha Nagar, Sakegaon Road, Chikhali Dist. Buldhana ",Buldhana,242580,annprincipal55@gmail.com,www.aecc.ac.in,Prof. Vijay D.Gurudasani,242063,Un-Aided,Non-Autonomous
"Jawaharlal Darda Institute of Engineering and Technology, Yavatmal",Amravati,Rural,"MIDC, Lohara, Amaravati Road, Yavatmal",Yavatmal,7447797963,jdiet_yml@bsnl.in,www.jdiet.ac.in,Avinash Navghare,7447797962,Un-Aided,Non-Autonomous
"Shri Hanuman Vyayam  Prasarak Mandals College of Engineering & Technology, Amravati",Amravati,Urban,"Hanuman Vyayam Nagar, H.V.P.M. Campus, Amravati",Amravati,2563422,principal@hvpmcoet.in,www.hvpmcoet.in,Mr. S.V.Dhole,2563422,Un-Aided,Non-Autonomous
"Dr. Bhausaheb Nadurkar College of Engineering, Waghapur,Yavatmal",Amravati,Urban,"Shri Saty Sai Krida Nagari, Waghapur Road, Yavatmal",Yavatmal,246166,dbncoetytl@gmail.com,www.dbncoet.ac.in,Prof. Ravi V. Nadimpalli,246162,Un-Aided,Non-Autonomous
"G.H. Raisoni college of Engineering & Management, Amravati",Amravati,Rural,"Anjangaon, Bari Road, Amravati",Amravati,2385429,vijay.rathod@raisoni.net,ghrcema.raisoni.net,Dr. Anand Deshpande,2385432,Un-Aided,Non-Autonomous
"Dwarka Bahu Uddeshiya Gramin Vikas Foundation, Rajarshri Shahu College of Engineering, Buldhana",Amravati,Rural,"Rajarshi Shahu Nagar, Near Palna Ghar, Sagwan Road,  Buldhana ",Buldhana,242080,rsc_engg@rediffmail.com,www.rsce.ac.in,Adv. Ms. Kirti Sawale,287167,Un-Aided,Non-Autonomous
"Jagadambha Bahuuddeshiya Gramin Vikas Sanstha's Jagdambha College of Engineering and Technology, Yavatmal",Amravati,Rural,"Sr. No.167/1,167/2 &163/,Arni Road, Mauza-Kinhi,Tal & Dist-Yavatmal",Yavatmal,244226,principal@jcoet.org,www.jcoet.org,Hemant M Baradkar,244226,Un-Aided,Non-Autonomous
"Prof Ram Meghe College of Engineering  and Management, Badnera",Amravati,Urban,"New Express Highway, Badnera Dist. Amravati",Amravati,2578385,principal@prmceam.ac.in,www.prmceam.ac.in,Mr. Sagar J Chandak,2580373,Un-Aided,Non-Autonomous
"Dhamangaon Education Society's College of Engineering and Technology, Dhamangaon",Amravati,Rural,"Knowledge Hub, Anjansingi Road, Dhamangaon RlY. Station, Amravati",Amravati,237335,desdcoet@rediffmail.com,www.descoet.org,Prof. Rajkumar Yadav,237335,Un-Aided,Non-Autonomous
"P. R. Pote Patil Institute of Engineering & Research, At  Kathora, Amravati ",Amravati,Rural,"Kathora Road, Pote Estate, Mu. Kathora Ta. Dist Amravati",Amravati,2970111,prpatilengineering@gmail.com,www.prppier.ac.in,Kishor Deshmukh,2970408,Un-Aided,Non-Autonomous
"Sanmati Engineering College, Sawargaon Barde, Washim",Amravati,Rural,"Survey no. 40, Washim-Malegaon Road, At. Post  Sawargaon Barde Dist. Washim ",Washim,233090,engineering@sanmati.in,www.sanmati.in,Vikas Joshi,234302,Un-Aided,Non-Autonomous
"Padmashri Dr. V.B.  Kolte College of Engineering, Malkapur, Buldhana",Amravati,Urban,"Malkapur, Dist. Buldhana",Buldhana,224943,coemalkapur@rediffmail.com,www.coemalkapur.ac.in,Mr. Ramakant Rane,226700,Un-Aided,Non-Autonomous
"Mauli Group of Institutions, College of Engineering and Technology, Shegaon.",Amravati,Urban,"Khamgaon Road, Shegaon Dist. Buldhana",Buldhana,7722027506,maulicoet@gmail.com,www.mauligroup.org,Mr. S. S. Badhe,7722027506,Un-Aided,Non-Autonomous
"Harikisan Maloo Institute Of Management & Technology, Amravati",Amravati,Urban,"Opp. Deshmukh Lawns, Shegaaon Rahatgaon Road, Amravati. ",Amravati,90968111,hcminstmngtech@gmail.com,www.maloogroup.org,Dr. Ashish R. maloo,2970119,Un-Aided,Non-Autonomous
"Pratap Institute of Management & Technology, Washim.",Amravati,Rural,"Gat No. 89 & 90, Mauza Walki, Risod Road, Washim",Washim,288919,pimt.washim@gmail.com,www.pimtwashim.org,Shriram Wamanrao Khope,288919,Un-Aided,Non-Autonomous
"Siddhivinayak Technical Campus, School of Engineering & Research Technology, Shirasgon, Nile ",Amravati,Rural,"Gat No.133,134 & 140, Shegaon Khamgaon Road, Shirasgaon, Nile, Tal. Shegaon",Buldhana,220333,admn.stc@gmail.com,www.stc.org.in,Prof. Umesh Kute,220222,Un-Aided,Non-Autonomous
"Manav School of Engineering & Technology, Gut No. 1035 Nagpur Surat Highway, NH No. 6 Tal.Vyala, Balapur, Akola,  444302",Amravati,Rural,"Gut No.1035, Surat Nagpur Highway Vyala, Tal.Balapur, Akola",Akola,238406,principal@manavengineering.ac.in,www.manavengineering.ac.in,Santosh Kale,238406,Un-Aided,Non-Autonomous
"Let.Dr.D.B.Dod College of Engineering, Jambla,Achalpur",Amravati,Rural,"Sr.No.32/4 , Mauja Jambla, Anjangaon Road, Paratwada Tal. Achalpur Dist. Amravati",Amravati,9970931278,drdbdod@rediffmail.com,www.dbdcoe.org,Jayashree R. Talokar,225503,Un-Aided,Non-Autonomous
"Government College of Engineering,  Aurangabad",Aurangabad,Urban,"Station Road, Osmanpura,  Aurangabad",Aurangabad,2366111,principalgeca@yahoo.com,www.geca.ac.in,Rasal Shivaji Bhagwan,2366111,Government,Autonomous
"Shri Guru Gobind Singhji Institute of Engineering and Technology, Nanded",Aurangabad,Urban,"Vishnupuri, Nanded",Nanded,229234,director@sggs.ac.in,www.sggs.ac.in,Mr. S. M. Nilangekar,229234,Government-Aided,Autonomous
"University Department of Chemical Technology, Aurangabad",Aurangabad,Urban,"Dr. Babasaheb Ambedkar Marathwada University Campus, Aurangabad",Aurangabad,2403307,udctaurangabad@yahoo.co.in,www.bamu.net,Dr. Ganesh R. Manza,2403308,University Department,Non-Autonomous
"Shree Yash Pratishthan, Shreeyash College of Engineering and Technology, Aurangabad",Aurangabad,Urban,"Gut No. 258 (P), Satara Tanda, Tal & Dist. Aurangabad",Aurangabad,6608702,sycet@yahoo.com,www.syp.ac.in,N.S.Saraf ,6608701,Un-Aided,Non-Autonomous
"G. S. Mandal's Maharashtra Institute of Technology, Aurangabad",Aurangabad,Urban,"N.H. No. 211,Beed bypass Road, Satara, Aurangabad",Aurangabad,2375222,spbhosle2001@gmail.com,www.mit.asia,Prof.Makarand Suresh Vaishnav,2375222,Un-Aided,Non-Autonomous
"Deogiri Institute of Engineering and Management Studies, Aurangabad",Aurangabad,Urban,"Deogiri College Campus, Railway Station Road, Aurangabad",Aurangabad,2367567,shiurkar@gmail.com,www.dietms.org,G. N.Tambe ,2367575,Un-Aided,Non-Autonomous
"Shree Sharda Bhavan Education Society's Institute of Technology & Management, Nanded",Aurangabad,Urban,"Yashwant College Campus, VIP Road Nanded,(MS) 431602",Nanded,253471,ssbesitm@yahoo.com,www.ssbesitm.org,S.B.HAMBARDE,254850,Un-Aided,Non-Autonomous
"Dnyanopasak Shikshan Mandal's Institute of Information Technology & Management, Parbhani.",Aurangabad,Urban,"C/o. Dnyanopasak College of  Arts, Commeres  & Science, Near Zilla Parishad, Jintur Road, Parbhani  431401",Parbhani,293044,gopal.hoge@gmail.com,www.dsmiitm.com,sandip bhagwanrao panchange,293044,Un-Aided,Non-Autonomous
"S.V.S.P. Mandal's Swami Vivekanand Institute of Technology and Mangement ,Udgir",Aurangabad,Rural,"Avalkonda Road, Udgir, Dist. Latur.   413517",Latur,253970,svitm934@gmail.com,www.svspm.edu.in,Datta Gharge,253970,Un-Aided,Non-Autonomous
"Gramodyogik Shikshan Mandal's Marathwada Institute of Technology, Aurangabad",Aurangabad,Urban,"P.B.-327, Satara Village Rd.,  off Beed By-Pass Highway ,Aurangabad",Aurangabad,2375111,principal.mite@mit.asia,www.mit.asia,SHRI. SURENDRA R. PATIL,2375375,Un-Aided,Non-Autonomous
"Mahatma Gandhi Missions College of Engineering, Hingoli Rd, Nanded.",Aurangabad,Urban,"Near Airport,Hingoli Road, Nanded",Nanded,224087,mgmcen@mgmcen.ac.in,www.mgmcen.ac.in,Mrs.  Amruta A. Sarsar ,222999,Un-Aided,Non-Autonomous
"M.S. Bidve Engineering College, Latur",Aurangabad,Rural,"P.O. Box No. 112, Barshi Road, Latur",Latur,221846,principal@msbecl.ac.in,www.msbecl.ac.in,MRS. BAWAGE V.V.,221255,Un-Aided,Non-Autonomous
"Shree Tuljabhavani College of Engineering, Tuljapur",Aurangabad,Rural,"Naldurg Road, Tuljapur, Dist. Osmanabad",Osmanabad,243603,stbcet@gmail.com,www.stbcet.org.in,Ms. S.T. Koli,243603,Un-Aided,Non-Autonomous
"M.G.M.'s Jawaharlal Nehru Engineering College, Aurangabad",Aurangabad,Urban,"Mahatma Gandhi Mission's Jawaharlal Nehru Engg. College Campus, N-6, CIDCO",Aurangabad,2481434,jnec@jnec.ac.in,www.jnec.org,Mrs. Aishwarya D. Joshi ,2482893,Un-Aided,Non-Autonomous
"Mahatma Basaweshwar Education Society's College of Engineering, Ambejogai",Aurangabad,Rural,"Ambejogai, Beed",Beed,2488882,khadakbhavibi@gmail.com,www.coea.ac.in,NOT FILLED,247262,Un-Aided,Non-Autonomous
"Peoples Education Society's College of Engineering, Aurangabad",Aurangabad,Urban,"Nagasen Vana, Near Panchakki, University Rd., Aurangabad",Aurangabad,2403001,principal@pescoe.ac.in,www.pescoe.ac.in,Shri. V. F. Gajbhiye,2403017,Un-Aided,Non-Autonomous
"Hi-Tech Institute of Technology, Aurangabad",Aurangabad,Urban,"P-119, Bajajnagar, Aurangabad ",Aurangabad,2552240,principal@hitechengg.edu.in,www.hitechengg.edu.in,Mr.B.B.Jadhav,2553496,Un-Aided,Non-Autonomous
"Nagnathappa Halge Engineering  College, Parli, Beed",Aurangabad,Rural,"At Brahmwadi , Post Tokwadi, Parli-Beed State Highway, Parli Vaijnath Dist. Beed",Beed,224334,nhce1@hotmail.com,www.nhce.in,Prof. Mulgir S.N.,224334,Un-Aided,Non-Autonomous
"Matsyodari Shikshan Sansatha's College of Engineering and Technology, Jalna",Aurangabad,Urban,"Jalna-Aurangabad Road, Nagewadi, Jalna",Jalna,202533,msscetjalna@gmail.com,www.msscetjalna.org,Sham B. Bhojane,202533,Un-Aided,Non-Autonomous
"Shri Sai Samajik Vikas Santha's Shri Sai Colllege of Engineering, Paddari Village Tal. & Dist. Aurangabad",Aurangabad,Rural,"Gut No. 80, Paddari Village,Near Beed bypass,via Deolai,Near Sai Mandir, Tal. & Dist. Aurangabad",Aurangabad,6517388,appoint01@gmail.com,www.saiengineeringcollege.in,Kharat B.M.,6453732,Un-Aided,Non-Autonomous
"Maharashtra Education Society's Maharashtra Udayagiri Institute of Management & Technology, Somnathpur",Aurangabad,Rural,"Vill. Somnathpur, Tal. Udgir. Dist. Latur",Latur,257722,principalmuimt@gmail.com,www.muec.ac.in,Mr. Kulkarni A.B.,256152,Un-Aided,Non-Autonomous
"Geetai Charitable Trust's Khurana Sawant Institute of Engineering & Technology, Balsond, Hingoli.",Aurangabad,Rural,"Balsond, Tal.& Dist. Hingoli",Hingoli,290282,ksiet_hingoli@yahoo.co.in,www.ksiet.org,Ashruba Limbaji Korde,290281,Un-Aided,Non-Autonomous
"Adarsh Shikshan Prasarak Mandal's K. T. Patil College of Engineering and Technology, Osmanabad",Aurangabad,Rural,"Keshav Nagar, Jadahavwadi Road, Osmanabad.Tal.  & Dist. Osmanabad",Osmanabad,2293099,ktpcoeo@gmail.com,www.ktpcoe.org.in,ANDHALKAR SANTOSH,2293200,Un-Aided,Non-Autonomous
"G.S. Mandals Marathwada Institute of Technology (Arch.), Aurangabad",Aurangabad,Urban,"PB 327,Satara Road, Aurangabad",Aurangabad,2375111,info@mit.asia,www.mit.asia,Surendra R. Patil,2375111,Un-Aided,Non-Autonomous
"Gramodyogik Shikshan Mandal's Marathwada Institute Of Technology, Rotegaon, Vaijapur, Dist. Aurangabad.",Aurangabad,Rural,"Rotegaon, Post Box No. 327, Taluka, Vaijapur,Satara Village Road Dist. Aurangabad 431028",Aurangabad,204035,munish.sharma@mit.asia,www.mit.asia,V.G.Talekar,204035,Un-Aided,Non-Autonomous
"Shree Bharavnath Nisarga Mandal, Diploma in Engineering and Technology, Gevrai Tanda, Aurangabad",Aurangabad,Rural,"Gevrai Tanda, Paithan Road, Taluka & Dist. Aurangabad.  431001",Aurangabad,6616401,principalsbnm@rediffmail.com,www.sbnmpoly.org,Mr. Kazi M,2480451,Un-Aided,Non-Autonomous
"Vinayakrao Patil Shikshan Prasarak Mandal, Institute Of Engineering & Technology Kannad",Aurangabad,Rural,"Kannad, Dist Aurangabad ",Aurangabad,220588,1157principal@msbte.com,www.ietkannad.org,MAGAR  N.S.,220588,Un-Aided,Non-Autonomous
"Shree Dhaneshwari Manav Vikas Mandal Diploma In Engineering And Technology Institute, Hatta, Tal. Basmat, Hingoli",Aurangabad,Rural,"Hatta, Taluka Vasamat, Dist. Hingoli ",Hingoli,244257,1006principal@msbte.com,www.sdmvmspolyhatta.in,Mr.Raut V.G.,22454,Un-Aided,Non-Autonomous
"Dharati Janseva Pratishthan, Diploma In Engineering & Technology Institute, Jalna",Aurangabad,Rural,"Rohanwadi, Revgaon Raod, Tq.Dist.Jalna ",Jalna,8888651267,1093principal@msbte.com,www.djppolytech.org,SHINDE B. T.,02482223,Un-Aided,Non-Autonomous
"Education Society, Kalawatibai College Of Engineering & Technology (Polytechnic), Naigaon, Nanded",Aurangabad,Rural,"Lalwandi Road, Tal. Naigaon (Kh), Nanded  431709",Nanded,263399,1155principal@msbte.com,www.kalawatibaipoly.com,Mrs.Dachawar P.S.,263399,Un-Aided,Non-Autonomous
"Sahayog Sevabhai Sanstha, Indira Institute Of Technology(Polytechnic), Nanded.",Aurangabad,Rural,"Gat No. 18 & 22 Vishnupuri, Nanded 431606",Nanded,229155,indirapoly@gmail.com,www.sahayogcampus.ac.in,KIRKAN SHANKAR SANJAY,229155,Un-Aided,Non-Autonomous
"Gramodyogik Shikshan Mandal's Marathwada Institute of Technology, Aurangabad",Aurangabad,Urban,"P.B.-327, Satara Village Rd.,  off Beed By-Pass Highway Aurangabad , 431005",Aurangabad,2375333,sunil.deshmukh@mit.asia,www.mit.asia,PRAKASH G. GADHE,2375333,Un-Aided,Non-Autonomous
"Marathwada Shikshan Prasarak Mandal's Shri Shivaji Institute of Engineering and Management Studies, Parbhani",Aurangabad,Urban,"Vasmat Road,Parbhani",Parbhani,234109,director.ssiems@yahoo.com,www.mspgroup.org,Solanke Vikas Shankarrao,234109,Un-Aided,Non-Autonomous
"Ransamrat Kreeda Mandal's Rajarshi Shahu Institue of Technology,Parli Road Kallam, Dist. Osmanabad",Aurangabad,Rural,"Gat No 65-A/2, Parli Road Kallam, Dist. Osmanabad. 413507",Osmanabad,263011,rsit1489@gmail.com,www.shahuitkallam.org,Jawale Niteen Khanderao,263010,Un-Aided,Non-Autonomous
"Ambarwadikar Institute of Hotel Management & Catering Technology Polytechnic, Deolai, Aurangabad",Aurangabad,Urban,"Gut No. 103, Deolai, Surya Lawns Campus, Beed , Aurangabad ",Aurangabad,2242044,ambarwadikar.hmct@gmail.com,www.ambarwadikartech.com,Mr.Raju Kale,2653155,Un-Aided,Non-Autonomous
"Anand Charitable Trusts, Diploma in Engineering & Technology, Murshadapur, Ashti, Dist. Beed",Aurangabad,Rural," Murshadapur, Tq. Ashti, Dist. Beed.  414203",Beed,282974,acspoly.ashti@gmail.com,www.dietashti.org,Bodkhe Vijay Babanrao,282974,Un-Aided,Non-Autonomous
"Sevadas Shikshan Prasarak Mandal's Vasantrao Naik Instiute of Technology, Vasarni, Nanded",Aurangabad,Urban,"Gut No 24, Vasarni, Nanded. 431603",Nanded,225375,1506principal@msbte.com,www.sevadasspmnnd.org,MR. JOSHI K.C.,225375,Un-Aided,Non-Autonomous
"Shri Sai Institute of Technology(Polytechnic),Aurangabad",Aurangabad,Urban,"P-75 Behind Garware Palyster,MIDC ,Chikalthana  Aurangabad , 431210",Aurangabad,2470312,ssitpoly@gmail.com,www.ssit.org.in,Gawande K R,2470312,Un-Aided,Non-Autonomous
"Sai Institute of Engineering & Technology, Bilda, Aurangabad.",Aurangabad,Rural,"Survey No.170, Sai Nagar,Aurangabad Ajanta Road,Jalgaon Highway,Village Bilda,Tal. Phulambri,",Aurangabad,2020555,sietaurangabad@gmail.com,www.sietaurangabad.com,Mr. Shankar Chate,2020555,Un-Aided,Non-Autonomous
"Maitree Foundation's Maitree Institute of Management & Technology, Bhatangali Tal.& Dist. Latur",Aurangabad,Rural,"Gut. No. 237, Bhatangali, Tq. & Dist. Latur.  413512",Latur,240430,mimlatur@rediffmail.com,www.mimlatur.com,Sharad Hudage,254888,Un-Aided,Non-Autonomous
"V.J. Shinde College of Engineering, Osmanabad.",Aurangabad,Urban,"Gat No. 738, Waruda road, Osmanabad.",Osmanabad,203205,vjscoe2529@gmail.com,www.vjsengg.com,Prof. Shinde Abhijeet V.,203205,Un-Aided,Non-Autonomous
"CSMSS Chh. Shahu College of Engineering, Aurangabad",Aurangabad,Urban,"Kanchanwadi, Paithan Road, Aurangabad.",Aurangabad,6646370,shahuengg@gmail.com,www.csmssengg.org,Pravinkumar G Jadhao,6646371,Un-Aided,Non-Autonomous
"D.B.Group of Instituions, School of Technology, At.Mahalangra, Tal.Chakur,Latur",Aurangabad,Rural,"Opp. LATUT-NANDED HIGHWAY,AT MAHALANGRA,TQ-CHAKUR,DIST-LATUR-412513",Latur,259008,dbimr@yahoo.com,www.dbgroup.org.in,PATHAN M.A.,259009,Un-Aided,Non-Autonomous
"Gramin College of Engineering, Vishnupuri, Nanded",Aurangabad,Urban,"Vishnupuri, Nanded, Nanded waghala, Nanded",Nanded,229900,graminenggnanded@gmail.com,www.graminenggnanded.org,Mrs. Gajbhare jaya,229112,Un-Aided,Non-Autonomous
"Veermata Jijabai Technological Institute(VJTI), Matunga, Mumbai",Mumbai,Urban,"H.R. Mahajani Marg, Matunga, Mumbai ",Mumbai City,24198101,director@vjti.org.in,www.vjti.ac.in,Dr. V. N. Palaskar,24198101,Government-Aided,Autonomous
"Sardar Patel College of Engineering, Andheri",Mumbai,Urban,"Munshi Nagar, Andheri (West),  Mumbai - Suburban ,Mumbai ",Mumbai Suburban,26708371,principal@spce.ac.in,www.spce.ac.in,S.R.Vinerkar,26232192,Government-Aided,Autonomous
"St. Xavier's Technical Institute, Mumbai",Mumbai,Urban,"Mahim Causeway Road, Mahim, Mumbai , 400016",Mumbai City,24451961,office@xaviertech.com,www.xaviertech.com,RAVIRAJ GHADGE,24455937,Government-Aided,Autonomous
"Father Agnel Technical College (Polytechnic), Bandra(W), Mumbai",Mumbai,Urban,"Fr. Agnel Ashram Mumbai , 400050",Mumbai City,67114051,fragnel_bandra@yahoo.com,atc.fragnel.ac.in,DEEPAK MASANE,67114054,Government-Aided,Autonomous
"Dr. Babasaheb Ambedkar Tech.University,Institute of Petrochemical Engineering,Lonere,Raigad",Mumbai,Rural,"Vidyavihar,P.O.Lonere,Tal-Mangaon. Raigad , 402103",Raigad,275103,iopelonere@rediffmail.com,www.iopelonere.com,---,275103,University Managed,Autonomous
"Manjara Charitable Trust's Rajiv Gandhi Institute of Technology, Mumbai",Mumbai,Urban,"Off. Juhu Versova Link Road, Versova, Andheri(W) Mumbai ",Mumbai Suburban,26707025,mctrgit02@gmail.com,www.mctrgit.ac.in,Shri. Subhash Khachane,26707026,Un-Aided,Non-Autonomous
"Vidyalankar Institute of Technology,Wadala, Mumbai",Mumbai,Urban,"Vidyalankar Educational Campus,Vidyalankar College Marg, Wadala(E), Mumbai ",Mumbai City,24161126,principal@vit.edu.in,www.vit.edu.in,Mukund Deshmukh,24161126,Un-Aided,Non-Autonomous
"Mahavir Education Trust's Shah & Anchor Kutchhi Engineering College, Mumbai",Mumbai,Urban,"Vaman Tukaram Patil Marg, Chembur, Mumbai",Mumbai Suburban,67978100,principal@sakec.ac.in,www.shahandanchor.com,Prof.A.W.Khan,25580854,Un-Aided,Non-Autonomous
"Saraswati Education Society's Saraswati College of Engineering,Kharghar Navi Mumbai",Mumbai,Urban,"Plot No 46/46 A, Sector 5 Near MSEB Sub Station Kharghar Navi Mumbai  Dist. Raigad ",Raigad,27743706,registrarsaraswati@gmail.com,www.sce.edu.in,Mr.Amar Shinde,27743705,Un-Aided,Non-Autonomous
"Bharti Vidyapeeth's Institute of Management & Information Technology, Navi Mumbai",Mumbai,Urban,"Sector 8. CBD, Belapur, Navi Mumbai  400614",Thane,27578415,admission@bvimit.co.in,www.bvimit.co.in,Amol Ghatage,27578415,Un-Aided,Non-Autonomous
"Deccan Education Society's Navinchandra Mehta Institute of Technology & Development, Dadar, Mumbai",Mumbai,Urban,"DES's Mumbai Campus, Kirti College Road, Dadar (W), Mumbai.  400028",Mumbai City,62764583,director@nmitd.edu.in,www.nmitd.edu.in,PRASAD KULAKRNI,62764583,Un-Aided,Non-Autonomous
"M.G.M.'s College of Engineering and Technology, Kamothe, Navi Mumbai ",Mumbai,Urban,"At Junction of NH4 & Sion-Panvel Expressway,  Kamothe, Navi Mumbai ",Raigad,65138119,principal.cet@mgmmumbai.ac.in,www.mgmmumbai.ac.in,Dr. Sunita Shinde,27433421,Un-Aided,Non-Autonomous
"Thakur College of Engineering and Technology, Kandivali, Mumbai",Mumbai,Urban,"Thakur Shyamnarayan Marg,Thakur Village,Kandivali(E), Mumbai",Mumbai Suburban,67308000,tcet@thakureducation.org,www.tcetmumbai.in,Prasad Madhavan,67308000,Un-Aided,Autonomous
"Thadomal Shahani Engineering College, Bandra, Mumbai",Mumbai,Urban,"37th Road, Off Linking Road, (Near National), Bandra (West), Mumbai ",Mumbai Suburban,26047087,gtthampi@yahoo.com,www.tsec.edu,Manohar Chandwani,26041631,Un-Aided,Non-Autonomous
"Fr. Conceicao Rodrigues College of Engineering, Bandra,Mumbai",Mumbai,Urban,"Father Agnel Ashram , Band-stand, Bandra (West), Mumbai",Mumbai Suburban,67114101,crce@fragnel.edu.in,www.fragnel.edu.in,Chandrashekhar Shetty,67114000,Un-Aided,Non-Autonomous
"Vivekanand Education Society's Institute of Technology, Chembur, Mumbai",Mumbai,Urban,"Hashu Advani Memorial Complex, Behind Collector Colony, R.C. Marg, Chembur, Mumbai",Mumbai Suburban,61532511,vesit@vsnl.com,www.ves.ac.in/vesit,Mrs. Asma Parveen I.Siddavatam,61532532,Un-Aided,Non-Autonomous
"Bharati Vidyapeeth College of Engineering,  Navi Mumbai",Mumbai,Urban,"Sector - 7,CBD- Belpur, Navi Mumbai 400614 ",Thane,27571074,principal.bvcoenm@bharatividyapeeth.edu,www.bvcoenm.edu.in,Mr. Santosh Shahaji Pawar,27572140,Un-Aided,Non-Autonomous
"Terna Engineering College, Nerul, Navi Mumbai",Mumbai,Urban,"Plot No. 12, Sector-22,Opp. Nerul Railway Station,Phase-II, Nerul (W),Navi Mumbai ",Thane,61115401,principal@terna.org,www.ternaengg.ac.in,Kavita S.Kadam,61115444,Un-Aided,Non-Autonomous
"Mandar Education Society's Rajaram Shinde College of Engineering, Pedhambe",Mumbai,Rural,"At Pedhambe, Po. Alore, Tal : Chiplun, Dist. Ratnagiri",Ratnagiri,230005,rscoedegree@gmail.com,www.mandaredusoc.org,D K Gaikwad,230005,Un-Aided,Non-Autonomous
"Smt. Indira Gandhi College of Engineering, Navi Mumbai",Mumbai,Urban,"Plot No.1, Sector No. 08, Ghansoli , Navi Mumbai 400 701",Thane,8080949300,contactus@sigce.edu.in,www.sigce.edu.in,Chandrakant Jadhav,27543608,Un-Aided,Non-Autonomous
"Shivajirao S. Jondhale College of Engineering, Dombivali,Mumbai",Mumbai,Urban,"Sheel Kalyan Highway, Behind Venkatesh Petrolpump, Sonarpada, Manpada Post, Dombivali (E) Thane ",Thane,2023973,officessjcoe@gmail.com,www.shivajiraojondhalecoe.org.in, Mr. Shejul F. C.,2872560,Un-Aided,Non-Autonomous
"Vidyavardhini's College of Engineering and Technology, Vasai",Mumbai,Urban,"Vasai Road (W Rly), Tal: Vasai, District Palghar ",Palghar,2338234,vcet_inbox@vcet.edu.in,www.vcet.edu.in,Mr. Vishal K. Save,2338234,Un-Aided,Non-Autonomous
"Agnel Charities' FR. C. Rodrigues Institute of Technology, Vashi, Navi Mumbai",Mumbai,Urban,"Sector 9-A,  Vashi, Navi Mumbai,",Thane,27771000,principalfcrit@gmail.com,www.fcrit.ac.in,Neena Biju Nair,227771000,Un-Aided,Non-Autonomous
"Konkan Gyanpeeth College of Engineering, Karjat",Mumbai,Urban,"Vengaon Road, Dahivali, Karjat",Raigad,222580,principal@kgce.edu.in,www.kgce.edu.in,A,222580,Un-Aided,Non-Autonomous
"Shri Vile Parle Kelvani Mandal's Dwarkadas J. Sanghvi College of Engineering, Vile Parle,Mumbai",Mumbai,Urban,"Plot No. U-15, J.V.P.D. Scheme, Bhaktivedanta Swami Marg, Vile Parle (West), Mumbai",Mumbai Suburban,26123892,info@djsce.ac.in,www.djsce.ac.in,Mrs. Shreeya Hadkar,26123892,Un-Aided,Non-Autonomous
"Hope Foundation and research center's  Finolex Academy of Management and Technology, Ratnagiri",Mumbai,Rural,"P- 60, P-60/1, MIDC, Mirjole Block, Ratnagiri",Ratnagiri,229569,admin@famt.ac.in,www.famt.ac.in,Gajanan D Targaonkar,229657,Un-Aided,Non-Autonomous
Rajendra Mane College of Engineering & Technology  Ambav Deorukh,Mumbai,Rural,"At - Ambav (Devrukh).Tal Sangameshwar,Dist.- Ratnagiri",Ratnagiri,269609,info@rmcet.com,www.rmcet.com,Padmanabh Shelar,269400,Un-Aided,Non-Autonomous
"Atharva College of Engineering,Malad(West),Mumbai",Mumbai,Urban,"S. No. 263, Plot No. 8-12, Malad-Marve Rd, Charkop Naka, Malad(W), Mumbai",Mumbai Suburban,40294907,ace@atharvaeducation.com,www.atharvaeducation.com,ANANDA  KANGANE,40294949,Un-Aided,Non-Autonomous
"Mahatma Education Society's Pillai College of Engineering, New Panvel",Mumbai,Urban,"Dr. K.M.Vasudevan Pillais' Campus Plot No. 10, Sector 16, New Panvel, Dist.Raigad",Raigad,27451700,principalpce@mes.ac.in,www.pce.ac.in,P. Kumaran,27456100,Un-Aided,Non-Autonomous
"Don Bosco Institute of Technology, Mumbai",Mumbai,Urban,"Premier Automobiles Road,Opp. Fiat Company, Kurla (West), Mumbai ",Mumbai Suburban,25040508,dbit@dbit.in,www.dbit.in,Mr. Rajendra Tatkare,25042018,Un-Aided,Non-Autonomous
"K J Somaiya Institute of Engineering and Information Technology, Sion, Mumbai",Mumbai,Urban,"Somaiya Auryvihar Complex,  Near Everard Nagar Eastern Express Highway, Sion (East), Mumbai",Mumbai Suburban,24061401,principal.tech@somaiya.edu,www.somaiya.edu/vidyavihar/kjsieit,Ankush Gaikwad,24080331,Un-Aided,Non-Autonomous
"S.I.E.S. Graduate School of Technology, Nerul, Navi Mumbai",Mumbai,Urban,"Sri. Chandrsekarendra Saraswathy Vidyapuram, Sector-5, Plot 1C&1E, Nerul Dist. Raigad ",Raigad,61082404,principalgst@sies.edu.in,www.siesgst.edu.in,V.Vijayalakshmi,61082400,Un-Aided,Non-Autonomous
"Vighnaharata Trust's  Shivajirao S. Jondhale College of Engineering & Technology, Shahapur, Asangaon, Dist Thane",Mumbai,Rural,"At Asangaon, Tal Shahapur, Opp Railway station, Dist : Thane",Thane,273999,vjtsscoe@rediffmail.com,www.jondhleengg.org,KISHOR JONDHALE,273999,Un-Aided,Non-Autonomous
"Aldel Education Trust's St. John College of Engineering & Management, Vevoor, Palghar",Mumbai,Rural,"St. John Technical Education Complex, Village Vevoor,Manor Road  Palghar (E)",Palghar,0,office@sjcem.edu.in,www.sjcem.edu.in,MR. SATISH KUMAR TIWARI,297275,Un-Aided,Non-Autonomous
"Koti Vidya Charitable Trust's  Smt. Alamuri Ratnamala Institute of Engineering and Technology,  Sapgaon, Tal. Shahapur",Mumbai,Rural,"Sapgaon, Taluka Shahapur  Dist. Thane",Thane,40244310,registrar@armiet.com,www.armiet.com,Ankit Suresh Sanghavi,40244310,Un-Aided,Non-Autonomous
"Saraswati Education Society, Yadavrao Tasgaonkar College of Engineering and Management, Nasarapur, Chandai, Karjat",Mumbai,Rural,"Chandhai, Neral - Kadav Raod, Post Nasrapur, Taluka Karjat, Dist. Raigad",Raigad,321524,sesytcem@gmail.com,www.tasgaonkartech.com,vivek dadu sawant,321524,Un-Aided,Non-Autonomous
"Late Shri. Vishnu Waman Thakur Charitable Trust, Viva Institute of Technology, Shirgaon",Mumbai,Rural,"Shirgaon, At. Post Virar, Tal. Vasai. Thane ",Palghar,7770002544,principalvit@vivacollege.org,www.viva-technology.org,Mr. Mahendra D. Kajare,7770002544,Un-Aided,Non-Autonomous
"Haji Jamaluddin Thim Trust's Theem College of Engineering, At. Villege Betegaon, Boisar",Mumbai,Rural,"At Village Betegaon,Boisar Chillhar Road , Near Union Park,  Boisar(E), Tal: Palghar,",Palghar,284926,info@theemcoe.org,www.theemcoe.org,SHEETAL PATIL,284909,Un-Aided,Non-Autonomous
"Mahatma Education Society's Pillai HOC College of Engineering & Technology, Tal. Khalapur. Dist. Raigad",Mumbai,Urban," Pillai HOCL Educational
Campus, Rasayani, Tal. Khalapur. Dist. Raisad-",Raigad,669001,pragneshshah@mes.ac.in,www.phcet.ac.in,Mr.Shirish Mayekar,669000,Un-Aided,Non-Autonomous
"Leela Education Society, G.V. Acharya Institute of Engineering and Technology, Shelu, Karjat",Mumbai,Urban,"Shelu/Damat Village, (Opp. Shelu Rly Station), Tal. Karjat. Dist. Raigad",Raigad,229628,principalgvaiet@yahoo.com,www.leelaeducationsociety.org,Swapnil Bafana,229628,Un-Aided,Non-Autonomous
"Bharati Vidyapeeth's Institute of Technology, Navi Mumbai",Mumbai,Urban,"Belpada, C. B. D. SECTOR - 7, OPP. Kharghar Railway Station, Navi Mumbai.",Thane,27580126,bvitmumai@yahoo.com,www.iotmumbai.bharatividyapeeth.edu,Dilip Ganpat Mahadik,27572434,Un-Aided,Non-Autonomous
"Maratha Mandir's Babasaheb Gawade Institute of Technology, Mumbai",Mumbai,Urban,"Maratha Mandir annex,Babasaheb Gawade Chowk,  Mumbai , 400008",Mumbai City,66044100,ajit.parab@mmbgims.com,www.mmbgit.org,Yogesh Sawant,66044100,Un-Aided,Non-Autonomous
"Kala Vidyamandir Institute of Technology (Polytechnic), Malad(W), Mumbai",Mumbai,Urban,"MHADA World Bank project, Plot  No. M3, RSC,Gaekwad Nagar, Malad(W),Mumbai , 400095",Mumbai Suburban,28440012,kvmitprinicipal@rediffmail.com,www.kvmt.co.in,P.T.NALE,28440012,Un-Aided,Non-Autonomous
"Shree Shankar Narayan Education Trust,Pravin Patil College of Diploma Engg. & Technology, Bhayinder (E) Western Rly",Mumbai,Urban,"Navghar,Bhayander(E), Thane , 401105",Thane,28044871,info@prppolytechnic.com,www.prppolytechnic.com,MR. RAJESH BHOIR,28044871,Un-Aided,Non-Autonomous
"Saraswati Education Society,Saraswati Institute of Technology, Kharghar, Navi Mumbai",Mumbai,Rural,"Plot No.-46/46A, Behind M.S.E.B.Sub Station, Near Utsav Chowk, Sector-5, Kharghar Navi Mumbai Raigad , 410210",Raigad,27743706,ses.siot.os.09@gmail.com,www.siot.edu.in,Mr. Amar A. Shinde,27743705,Un-Aided,Non-Autonomous
"Bharat College of Engineering, Kanhor, Badlapur(W)",Mumbai,Rural,"Kanhor, Badlapur(w).,Tal- Ambernath. Dist. Thane ",Thane,7666615915,info@bharatedu.co.in,www.bharatedu.co.in,Mr. Satish Vishe,2665001,Un-Aided,Non-Autonomous
"Dilkap Research Institute Of Engineering and Management Studies, At.Mamdapur, Post- Neral, Tal- Karjat,  Mumbai",Mumbai,Rural,"Village At.Mamdapur, Post- Neral, Tal- Karjat,  Dist.Raigadh",Raigad,651806,sumaneducationaltrust@gmail.com,www.driems.in,Mr. Jalindar Shinde,651806,Un-Aided,Non-Autonomous
"Shree L.R. Tiwari College of Engineering, Mira Road, Mumbai
",Mumbai,Urban,"Survey no. 267, Near Commisioner's Bungalow,Kanakiya Park,Mira Road (E)Thane",Thane,28120145,slrtce@rahuleducation.com,www.slrtce.in,hubale santosh,28120144,Un-Aided,Non-Autonomous
"B.R. Harne College of Engineering & Technology, Karav, Tal-Ambernath.",Mumbai,Rural,"At.Karav, Post Vangani(w), Tal. Ambernath, Dist. Thane ",Thane,2910193,jsiddhivinayakf@gmail.com,www.brharnetc.edu.in,Shailesh,2910190,Un-Aided,Non-Autonomous
"Anjuman-I-Islam's Kalsekar Technical Campus, Panvel",Mumbai,Urban,"Plot No.2, 3 Sector - 16, Khandgaon, Thane Naka, Panvel Dist. Raigad ",Raigad,27481249,aiktc.newpanvel@gmail.com,www.aiktc.org,Dr. Jamil Daud,27481247,Un-Aided,Non-Autonomous
"G.M.Vedak Institute of Technology, Tala, Raigad.",Mumbai,Rural,"At Post Taluka. Tala, Dist. Raigad ",Raigad,269004,gmvedakit@gmail.com,www.gmvit.com,Prof. Satish Jadhav,269004,Un-Aided,Non-Autonomous
"Universal College of Engineering,Kaman Dist. Palghar",Mumbai,Rural,"Kaman Bhiwandi Road, S.N. 146(Part), Kaman, Vasai",Palghar,2210044,moses.lopes@universal.edu.in,www.ucoe.edu.in,Mr. Moses Lopes,69624580,Un-Aided,Non-Autonomous
"VPM's Maharshi Parshuram College of Engineering, Velneshwar, Ratnagiri.",Mumbai,Rural,"At Post Velneshwar, Hedvai-Guhagar Road, Guhagar,Ratnagiri.",Ratnagiri,9527634958,info@vpmmpcoe.org,www.vpmmpcoe.org,Mr. Ravindra Rasal,243101,Un-Aided,Non-Autonomous
"Ideal Institute of Technology, Wada, Dist.Thane",Mumbai,Rural,"40, Pasheri Village, Pimplaj road, Taluka Wada, Dist.Thane. ",Palghar,212144,idealinstituteoftechnology13@gmail.com,www.idealwada.com,Mr. Jugal Mehra ,212144,Un-Aided,Non-Autonomous
"Vishwaniketan's Institute of Management Entrepreneurship and Engineering Technology(i MEET), Khalapur Dist Raigad",Mumbai,Rural,"Survey No. 52 Kumbhivali, On Mumbai-Pune Expressway, Near Khalapur Toll Naka ,Tal-Khalapur, Dist- Raigad",Raigad,274210,mail.vishwaniketan@gmail.com,www.vishwaniketan.edu.in,Mr. H. R. Mavkar,274206,Un-Aided,Non-Autonomous
"New Horizon Institute of Technology & Management, Thane",Mumbai,Urban,"Anand Nagar, Kavesar, Off. Ghodbunder Road, Thane(W)",Thane,25971778,principal@nhitm.ac.in,www.nhitm.ac.in,Mr. Rupesh Pethe,25971778,Un-Aided,Non-Autonomous
"Government College of Engineering, Chandrapur",Nagpur,Urban,"Ballarsha Bypass Road,Chandrapur ",Chandrapur,230299,gcoechandrapur@gmail.com,www.gcoec.ac.in,Smt. S. R. Bhagwat,230478,Government,Non-Autonomous
"Laxminarayan Institute of Technology, Nagpur",Nagpur,Urban,"L.I.T.Premises, Opposite Bharatnagar, Amravati Road, Nagpur",Nagpur,2531659,rajumankar@gmail.com,www.litnagpur.in,Dr. Vinayak Deshpande,2561107,University Department,Non-Autonomous
"Lady Amritbai Daga College for Women of Arts, Comm & Sci &  R.Purohit College of H.Sci & H. Sc. Technology, Nagpur",Nagpur,Urban,"Department of HMCT, L.A.D.  & Smt. R.P.College for Women,  Seminary hills, Shankar Nagar,Nagpur ",Nagpur,2246623,lad_hmct@yahoo.com,hmct.ladcollege.in/,Deepika Reddiwar,2512336,Government-Aided,Non-Autonomous
"Government Institute of Hotel Management & Catering Technology, Nagpur",Nagpur,Urban,"Govt. Polytechnic Campus, Nagpur , 440001",Nagpur,2542725,principahmct_ngp@hotmail.com,www.gihmctngp.org,V. D. Pohane,2544355,Government,Non-Autonomous
"Government College of Engineering, Nagpur",Nagpur,Urban,"Sector-27, Mihan Rehabilitation Colony, Khapari, Nagpur",Nagpur,202011,office.gcoenagpur@dtemaharashtra.gov.in,www.gcoen.ac.in,MR.N. H. BHUJADE,202012,Government,Non-Autonomous
"Shree Shivaji Education Society, Dr. Panjabrao Deshmukh Institute of Management Technology & Research, Nagpur",Nagpur,Urban,"Dept. of Dhanwate National College, Congress Nagar Opp. Ajni Rly Station  Nagpur , 440012",Nagpur,2522759,pdimtrdnc@gmail.com,www.pdimtr.ac.in,Ashok Chandan,2445356,Un-Aided,Non-Autonomous
"Kavi Kulguru Institute of Technology & Science, Ramtek",Nagpur,Rural,"K. K. Nagar, Ramtek, Nagpur - 441 106  ",Nagpur,255047,principal@kits.edu,www.kits.edu,Dr. B. Ram Rathan Lal,255309,Un-Aided,Non-Autonomous
"GES Department Of Management Technology N.M.D.PG College Of Arts, Commerce, Law & Management, Gondia ",Nagpur,Urban,"Ramnagar, Gondia   441614",Gondia,252634,dmtr.nmd@rediffmail.com,www.nmdcgmmba.co.in,ARVIND TONDTRE,252682,Un-Aided,Non-Autonomous
"Shri Ramdeobaba College of Engineering and Management, Nagpur",Nagpur,Urban,"Gittikhadan, Katola  Road, Nagpur",Nagpur,2583239,deanadmissions@rknec.edu,www.rknec.edu,Prof. Nikhil Shirish Damle,2580011,Un-Aided,Autonomous
"Ankush Shikshan Sanstha's G.H.Raisoni College of Engineering, Nagpur",Nagpur,Urban,"C.R.P.F. Gate No.3, Digdoh Hills, Hingna Road, Nagpur ",Nagpur,9881713575,principal.ghrce@raisoni.net,www.ghrce.raisoni.net,Dr Sanjay Dorle,9604787184,Un-Aided,Autonomous
G.H. Raisoni Institute of Information Technology,Nagpur,Urban," 37-39/1, SHRADDHA PART, OFF HINGNA-WADI LINK ROAD, MIDC, NAGPUR, MAHARASHTRa 440028",Nagpur,236102,ghriitnag@raisoni.net,ghriit.raisoni.net,Mr. Sushil J. Jadhav,236102,Un-Aided,Non-Autonomous
"Bapurao Deshmukh College of Engineering, Sevagram",Nagpur,Rural,"P.O.Sevagram,Dist-Wardha",Wardha,284030,princi.bdces@gmail.com,www.bdce.edu.in,Mr.G.D.Dhawale,284378,Un-Aided,Non-Autonomous
"Lokmanya Tilak Jankalyan Shikshan Sanstha, Priyadarshani College of Engineering, Nagpur ",Nagpur,Rural,"Near CRPF Campus, Hingna Road, Nagpur ",Nagpur,244285,mpsingh3712@rediffmail.com,www.pcenagpur.edu.in,Mr. Vijay Athalye,244381,Un-Aided,Non-Autonomous
"Sanmarg Shikshan Sanstha's Smt. Radhikatai Pandav College of Engineering, Nagpur",Nagpur,Urban,"Near Dighori Naka, Umrer Road, Bhadura, Nagpur",Nagpur,663603,admin@srpce.ac.in,www.srpce.ac.in,Mr. Satish Lanjewar,663603,Un-Aided,Non-Autonomous
"Guru Nanak Institute of Engineering & Technology,Kalmeshwar, Nagpur",Nagpur,Rural,"Khasara No-94,95&164/1,Mauza Dahegaon,Opposite IOC Prtrol Pump,Kalmeshwar, Nagpur",Nagpur,661400,gnietnagpur@gmail.com,www.gniet.ac.in,Mr. Shital V. Likhar,661400,Un-Aided,Non-Autonomous
"Amar Seva Mandal's Shree Govindrao Vanjari College of Engineering &  Technology, Nagpur",Nagpur,Rural,"Survey No. 148/149, Salai Godhani, Near Chikna Village, Hudakeshwar Road, Nagpur",Nagpur,2742308,gwcet@rediffmail.com,www.gwcet.ac.in,Mr. Pankaj Kohale,2742308,Un-Aided,Non-Autonomous
"Lokmanya Tilak Jankalyan Shikshan Sastha, Priyadarshini J. L. College Of Engineering, Nagpur",Nagpur,Urban,"846, Nandanvan, Nagpur ",Nagpur,2712490,principaljlcce@gmail.com,www.jlcce.ltjss.net,Mrs.A.V.Kature,2711505,Un-Aided,Non-Autonomous
"Jaidev Education Society, J D College of Engineering and Management, Nagpur ",Nagpur,Rural,"At Khandala, Post Vaini Katol Road, Nagpur",Nagpur,2682619,principal@jdcoem.ac.in,www.jdcoem.ac.in,Dr Ujwala S Dange,2023003,Un-Aided,Non-Autonomous
"Samridhi Sarwajanik Charitable Trust, Jhulelal Institute of Technology, Nagpur",Nagpur,Urban,"Kh. No.72, 68/1, 68/2, 68/3, Lonara Dist. Nagpur",Nagpur,2668235,admin@jit.org.in,www.jit.org.in,Mr. SUMEET CHANDEGAVE,2668233,Un-Aided,Non-Autonomous
"Ankush Shikshan Sanstha's G. H. Raisoni Institute of Engineering & Technology, Nagpur",Nagpur,Rural,"MIDC, Near Facor, Higna Wadi Road, Nagpur ",Nagpur,234501,ghrietn@raisoni.net,www.ghrietn.raisoni.net,Prof. M.J. Katira,234501,Un-Aided,Non-Autonomous
"Shri. Sai Shikshan Sanstha, Nagpur Institute of Technology, Nagpur",Nagpur,Urban,"Sr. No.13/2, Mahurzari, Katol Road, Taluka & Dist Nagpur ",Nagpur,9881711787,registrar@nit.edu.in,www.nit.edu.in,Sandeep Kale,9881711787,Un-Aided,Non-Autonomous
"Wainganga College of Engineering and Management, Dongargaon, Nagpur",Nagpur,Urban,"Dongargoan, Near Gumgaon Railway Station, Post - Gumgaon, Wardha road, Nagpur",Nagpur,202007,wcem4145@gmail.com,www.wcem.in,Mr. R P Madankar,203728,Un-Aided,Non-Autonomous
"KDK College of Engineering, Umrer, Nagpur",Nagpur,Rural,"State Highway No.9, Opp. W. C. L., Umrer Project, Umrer, Nagpur",Nagpur,247823,dratulcwaghmare@rediffmail.com,www.ucoe.org.in,Mr. Ajay  Dhanvijay,247317,Un-Aided,Non-Autonomous
"K.D.K. College of Engineering, Nagpur",Nagpur,Urban," Great Nag Road, Nandanvan, Nagpur",Nagpur,2711400,kdkce4147@gmail.com,www.kdkce.edu.in,Anant B. Bute,2710030,Un-Aided,Non-Autonomous
"Vidarbha Bahu-Uddeshiya Shikshan Sanstha's Tulshiramji Gaikwad Patil College of Engineering & Technology, Nagpur",Nagpur,Rural,"Kh. No. 8/1, Mohgaon,Wardha Road,Nagpur ",Nagpur,6648252,vidarbhabuss@yahoo.co.in,www.tgpcet.com,SANDEEP PALSODKAR,645410,Un-Aided,Non-Autonomous
Rajiv Gandhi College of Engineering Research & Technology  Chandrapur,Nagpur,Urban,Ballarpur Road Babupeth Dist. Chandrapur,Chandrapur,225286,principal@rcert.ac.in,www.rcert.ac.in, R. S. Chilbule,225168,Un-Aided,Non-Autonomous
"Gondia Education Society's Manoharbhai Patel Institute of Engineering and Technology, Gondia",Nagpur,Rural,"Kudwa,  Dist. Gondia ",Gondia,252158,principal_miet@rediffmail.com,www.mietgondia.in,Mr. W.N.Sahare,252033,Un-Aided,Non-Autonomous
"Yeshwantrao Chavan College of Engineering,Wanadongri, Nagpur",Nagpur,Rural,"Hingna Road, Wanadongri, Nagpur  441110",Nagpur,329250,principal@ycce.edu,www.ycce.edu,DR. P. K. DAKHOLE,242919,Un-Aided,Autonomous
"Lokmanya Tilak Jankalyan Shikshan Sanstha's , Priyadarshini Institute of Engineering and Technology, Nagpur",Nagpur,Urban,"Mouza Shivangaon , Khasara, 1/1A, 1909/12C, Near CRPF Campus, Hingna Road, Nagpur",Nagpur,244470,viveknanoti@gmail.com,www.piet.ltjss.net,Mr. Abhaykumar Das,244463,Un-Aided,Non-Autonomous
"Anjuman College of Engineering & Technology, Nagpur",Nagpur,Urban,"Mangalwari Bazar Road, Sadar, Nagpur",Nagpur,2583559,eng_acet@rediffmail.com,www.anjumanengg.edu.in,Aamir Siddiqui,6604502,Un-Aided,Non-Autonomous
"JMSS Shri Shankarprasad Agnihotri College of Engineering, Wardha",Nagpur,Rural,"Agnihotri College Campus, Bapujiwadi, Ramnagar, Wardha ",Wardha,232552,agisspace2007@gmail.com,www.sspace.ac.in,MR.GAJANAN DANDADE,250007,Un-Aided,Non-Autonomous
"Priyadarshini Bhagwati  College of Engineering, Harpur Nagar, Umred Road,Nagpur",Nagpur,Urban,"Harpur Nagar, Umrer Road, Nagpur",Nagpur,2710281,principalpbcoe@gmail.com,www.bcce.ltjss.net,Mr. V. D. Barapatre,2710282,Un-Aided,Non-Autonomous
"Lokmanya Tilak Jankalyan Shiksan Sanstha, Priyadarshini Indira Gandhi College of Engineering, Nagpur ",Nagpur,Rural,"Opp. Lata Mangeshkar Hospital, Hingana Road, Nagpur",Nagpur,232545,pigce.principal@gmail.com,www.pice.ltjss.net,Mr. Sachin Khedikar,232545,Un-Aided,Non-Autonomous
"KDKs Shrimati Rajashri Mulak College of Engineering for Womens, Nagpur",Nagpur,Urban,"KDK College Campus, Great Nag Road, Nandanvan, Nagpur ",Nagpur,2716411,principal_srmcew@yahoo.com,www.srmcew.edu.in,Mr. H V Sondawale,2714750,Un-Aided,Non-Autonomous
"Sarvasiddhanta Education Soc's Nuva College of Engineering and Technology, Nagpur",Nagpur,Rural,"146,149,150 & 153,Nagpur Katol Highway, Khapri(Kothe),Tal.Kalmeshwar, Nagpur",Nagpur,0,infonuva@gmail.com,www.nuvaedu.com,Abhijeeth Nair,661105,Un-Aided,Non-Autonomous
"Shree Bapuraoji Deshmukh Foundation, Suresh Deshmukh College of Engineering, Selukate, Wardha",Nagpur,Rural,"Selukate, Survey No. 161, Mauje Selu Kate, Dist. Wardha ",Wardha,282333,princi.sdces@gmail.com,www.sdce.edu.in,Mr. K.D. Fartade,282533,Un-Aided,Non-Autonomous
"Dr. Babasaheb Ambedkar College of Engineering and Research, Wanadongri, Nagpur",Nagpur,Rural,"Wanhadongri, Hingna Road, Nagpur ",Nagpur,242406,svssngp@gmail.com,www.svsscer.edu.in,Mrs.Lucky Chandekar,242406,Un-Aided,Non-Autonomous
"Sardar Patel Memorial Society's Namdevrao Poreddiwar College of Engineering and Technology, Gadchiroli",Nagpur,Rural,"At Mouza Boldi, Dhanopra Road, Tal & Dist. Gadchiroli",Gadchiroli,237862,principal.ncet@gmail.com,www.npcet.ac.in,Vinod Dhamange,237861,Un-Aided,Non-Autonomous
"M.D. Yergude Memorial Shikshan Prasarak Mandal's Shri Sai College of Engineering & Technology, Badravati
",Nagpur,Rural,"Near Village Lonara, Nagpur Road, Badravati Dist. Chandrapur ",Chandrapur,230723,mdyergude@yahoo.com,www.sscet.in,MR.J.S. TRIPATI,230723,Un-Aided,Non-Autonomous
"Nav Disha Education Soc, Acharya Vinoba Bhave Institute of Technology ,Mauza-Pawnar,Wardha",Nagpur,Rural,"At Post Pavanar, Dist. Wardha",Wardha,93733950,avbit2008@rediffmail.com,www.abvit.org,Pradip umate,93733950,Un-Aided,Non-Autonomous
"Vidharbha Bahu uddeshiya Shikshan Sanstha's Abha Gaikwad – Patil College of Engineering, Nagpur",Nagpur,Urban,"Khasara No.8/1, Mohgaon, Wardha Road, Tal. & Dist. Nagpur",Nagpur,6648252,vidarbhabuss@yahoo.co.in,www.agpce.com,Liladhar Bawane,645412,Un-Aided,Non-Autonomous
"Gurunanak Educational Society's Gurunanak Institute of Technology, Nagpur",Nagpur,Rural,"Dahegaon, Kalmeshwar Road, Nagpur",Nagpur,2234333,gniemnagpur@gmail.com,www.gniem.ac.in,Shri. Rajendra Khobe,661450,Un-Aided,Non-Autonomous
"Jai Mahakali Shikshan Sanstha, Agnihotri College of Engineering, Sindhi(Meghe)
",Nagpur,Rural,"Nagthana Road, Near Bypass Highway Road, Sindhi (Meghe). Wardha ",Wardha,240527,ajayshelke.000@rediffmail.com,www.agnihotrigroup.org,Gajanan A. Dandade,250152,Un-Aided,Non-Autonomous
"Yugantar Education Society's Shri Balasaheb Tirpude College of Hotel Management & Catering Technology,Nagpur",Nagpur,Urban,"Shri Nasikraoji Tirpude Marg,Civil Lines ,Sadar, Nagpur",Nagpur,2550032,tirpudehmct@gmail.com,www.tirpudehmct.org,VINOD MESHRAM,2550695,Un-Aided,Non-Autonomous
"Jai Mahakali Shikshan Sanstha's Agnihotri School of Technology, Ramnagar, Wardha",Nagpur,Rural,"Ramnagar, Wardha , 442001",Wardha,252888,ast695@rediffmail.com,www.astwardha.in,Mr. Amol V. Nandedkar,252888,Un-Aided,Non-Autonomous
"Late Madhukarrao Deshmukh Education Soceity's Avdhoot Diploma College Of Engineering, Mouza, Bhojapur",Nagpur,Rural,"Mauza Bhojapur, P.H. No.115, Sur. No.6, Kuhi, Nagpur 400001",Nagpur,220021,avdootpoly@rediffmal.com,lmdes.org.in,Nitin Madhukarrao Deshmukh,220021,Un-Aided,Non-Autonomous
"Krushna Sahayogi Tantra Shikshan Sanstha, Chatrapati Shivaji Institute Of Technology, Deori, Gondia",Nagpur,Rural,"Shivaji Campus,At.Post.Th.Deori(Chichgadh Road) Gondia , 441901",Gondia,225631,kstsscsit@rediffmail.com,www.kstsscsit.org,Chittaranjan girhepuje,225631,Un-Aided,Non-Autonomous
"Sikh Education Society's Gurunanak Technical Institute of Pharmacy, Nagpur",Nagpur,Urban,"Mauza Nari, Near Dixit Nagar, Kh. No. 81/1, C.P. Foundry,Pili Nadi Nagpur , 440026",Nagpur,2242017,gnti1983@yahoo.com,www.gntinagpur,Harmindersingh Huda,2633854,Un-Aided,Non-Autonomous
" V M Institute of Engineering and Technology, Dongargaon, Nagpur",Nagpur,Rural,"Dhutte village , Near Dongargaon, Wardha Road, Nagpur",Nagpur,645689,vmietnag@gmail.com,www.vmit.org.in,Liladhar Bawane,6650243,Un-Aided,Non-Autonomous
"ITM College of Engineering, Nagpur",Nagpur,Rural,"Near Madhi Mandir, Ghorpad Road, Kamptee, Dist-Nagpur",Nagpur,9881713211,prasadv@itmnagpur.ac.in,www.itmnagpur.ac.in,P.R.Velankar,7109270273,Un-Aided,Non-Autonomous
"Gondia Education Society's Manoharbhai Patel Institute Of Engineering & Technology, Shahapur, Bhandara ",Nagpur,Urban,"N.H.6 Shahapur,Bhandara",Bhandara,7709967710,principalmietb@rediffmail.com,www.mietbhandara.ac.in,CHAKRADHAR KAHALKAR,9975591177,Un-Aided,Non-Autonomous
"Vidya Niketan Institute of Engineering and Technology, Nagpur",Nagpur,Urban,"At. Post : Gondkheri. Tah.: Kalmeshwar, Dist.: Nagpur",Nagpur,277088,principal@vniet.org,www.vniet.org,Prof. S. D. Ninawe,277088,Un-Aided,Non-Autonomous
"Cummins College of Engineering For Women, Sukhali (Gupchup), Tal. Hingna Hingna Nagpur",Nagpur,Rural,"Mouje Sukhali (Gupchup), Tal. Hingna  Dist. Nagpur",Nagpur,94230551,office@cumminscollege.edu.in,www.cumminscollege.edu.in,Mr. Pradeep  Joshi,96576670,Un-Aided,Non-Autonomous
"G.H.Raisoni Academy of Engineering & Technology, Nagpur",Nagpur,Urban,"Shraddha Park, Off Hingna-Wadi Link Road, Nagpur",Nagpur,237688,ghraetnag@raisoni.net,www.ghraet.raisoni.net,Prashant Awachat,237688,Un-Aided,Non-Autonomous
"Indian Instiutute of Fire Engineering, Nagpur",Nagpur,Urban,"Makardhokda Katol Road,Near VeerChakra Colony, Nagpur  440013",Nagpur,2570733,fireinstitute96@gmail.com,www.firecollegenagpur.in,milind chimurkar,2574129,Un-Aided,Non-Autonomous
"Maharashtra Shikshan Prasarak Mandals,Sommaya Diploma In Engineering, Wadgaon Dist Chandrapur",Nagpur,Urban,Wadgaon Dist Chandrapur   442402,Chandrapur,271252,somayyamspm@gmail.com,www.somayyapolytechnic.com,Rajesh.P.Bisan,271232,Un-Aided,Non-Autonomous
"Navneet Bahuuddeshya Sanstha, Kinkar Institute Of Technology,Seloo,Dist.Wardha",Nagpur,Rural,"Rehnki Road,Seloo,Dist.Wardha ",Wardha,220240,principal.kit4612@gmail.com,www.kitseloo.org,Mr.Dipak.Dhodre,220240,Un-Aided,Non-Autonomous
"Suryodaya College of Engineering & Technology, Nagpur
",Nagpur,Urban,"Survey No. 117/1 & 117/3 A, Vihirgaon, Nagpur ",Nagpur,276282,scetngp@gmail.com,www.scetngp.com,Mr. Manoj N. Guhe,276282,Un-Aided,Non-Autonomous
"Bajaj Institute of Technology, Wardha",Nagpur,Rural,"Arvi Road, in Front of Ramkrishna Bajaj Agriculture College, Pipri, Wardha ",Wardha,9823382851,shikshamandal@gmail.com,www.bit.shikshamandal.org,Mr. Parag Kombe,255770,Un-Aided,Non-Autonomous
"University Institute  of Chemical Technology, North Maharashtra University, Jalgaon  ",Nashik,Urban,"P.B.No. 80, Umavinagar, Jalgaon",Jalgaon,2258181,jbnaik@nmu.ac.in,www.nmu.ac.in,Prof. S. A. Raut,2257441,University Department,Non-Autonomous
"Government College of Engineering, Jalgaon",Nashik,Rural,"Opp.Govt  I.T. I. National Highway No-6, Jalgaon ",Jalgaon,2281522,princoej@rediffmail.com,www.gcoej.ac.in,Smt. S A Patil,2281522,Government,Autonomous
"Mahatma Gandhi Taluka Shikshan Mandal's Sharadchandrika S. Patil Inst of Technology, Chopda",Nashik,Urban,"CHOPDA Jalgaon , 425107",Jalgaon,220700,dpharmacychopda@gmail.com,,Shri. S.J.Patil,220500,Government-Aided,Non-Autonomous
"Shri Shivaji Vidya Prasarak Sanstha's Late Bapusaheb Shivaji Rao Deore College of Engineering,Dhule",Nashik,Urban,"SSVP Sansthas B S Deore College of Engineering ,M.B.A.Department, Dhule",Dhule,284300,princi.ssvps@gmail.com,www.ssvpsengg.ac.in,Prof. Kunal S. Patil,272713,Un-Aided,Non-Autonomous
"Shramsadhana Bombay Trust, College of Engineering & Technology, Jalgaon ",Nashik,Rural,"Bambori, Dharangaon,  Jalgaon ",Jalgaon,2252989,sscoetjal@gmail.com,www.sscoetjalgaon.ac.in,Mr. Y.K. Chitte,2258393,Un-Aided,Non-Autonomous
"G.H. Raisoni Institute of Engineering and Management, Jalgaon",Nashik,Rural,"Gat No. 57/1, Shirsoli Road, At. Post- Mohadi Tal. & Dist. Jalgaon, ",Jalgaon,2264882,prabhakar.bhat@raisoni.net,www.raisoni.net,Arun Daulatrao Patil,2264881,Un-Aided,Non-Autonomous
"K. C. E. Societys College of Engineering and Information Technology, Jalgaon ",Nashik,Urban,"C.S. No. 7480 and 7323, Behind D.I.C., N.H.No.6,  IMR Campus, Jilha Path, Jalgaon",Jalgaon,2242026,coeit.inquiry@gmail.com,www.coeit.kces.in,Prof. Sanjay R Sugandhi,2242025,Un-Aided,Non-Autonomous
"Shri Gulabrao Deokar College of Engineering, Jalgaon",Nashik,Rural,"Gat No. 56,  P.B. NO. 113, Shirsoli Road, Jalgaon ",Jalgaon,2264873,principal@sgdcoejalgaon.org,www.sgdcoejalgaon.org,Shashikant B Patil,2264871,Un-Aided,Non-Autonomous
"Nashik District Maratha Vidya Prasarak Samaj's Karmaveer Adv.Babaurao Ganpatrao Thakare College of Engineering, Nashik",Nashik,Urban,"Udoji Maratha Boarding Campus, Near Pumping Station, Gangapur Road, Nashik",Nashik,7378497999,principal@kbtcoe.org,www.kbtcoe.org,Mrs. Shrushti J. Shinde,2571439,Un-Aided,Non-Autonomous
"Sandip Foundation, Sandip Institute of Technology and Research Centre, Mahiravani, Nashik",Nashik,Rural,"At Post mahiravani, Trimbak Road Dist Nashik",Nashik,222551,principal@sitrc.org,www.sandipfoundation.org,Mrs. Aruna Aher,222551,Un-Aided,Non-Autonomous
"Nashik District Maratha Vidya Prasarak Samaj's Institute of Management Research & Technology, Nashik",Nashik,Urban,"M. V. P. Campus, Gangapur Road, Shivaji Nagar, Nasik  422002",Nashik,2571650,imrt_mba@yahoo.co.in,www.imrt.ac.in,Aher U.B.,2571650,Un-Aided,Non-Autonomous
"Jagadamba Education Soc. Nashik's S.N.D. College of Engineering & Reserch, Babulgaon ",Nashik,Rural,"At. Post Babulgaon, Tal Yeola, Nashik",Nashik,225011,sndcoe.principal@gmail.com,www.sndcoe.ac.in,Prof I. R. Shaikh,225012,Un-Aided,Non-Autonomous
"Pravara Rural Education Society's Sir Visvesvaraya Institute of Technology, Chincholi Dist. Nashik",Nashik,Rural,"At / Po Chincholi, Tal. Sinnar, Nashik",Nashik,271261,svit.nashik@pravara.in,www.svitnashik.in,Mr. Ghuge S L,271278,Un-Aided,Non-Autonomous
"Brahma Valley College of Engineering & Research, Trimbakeshwar, Nashik",Nashik,Rural,"Anjaneri Village, Trimbakeshwar, Dist.Nashik 422103",Nashik,2464691,princi.bvcoe@gmail.com,www.brahmavalley.com,Mr. Pagar Samadhan S.,220202,Un-Aided,Non-Autonomous
"Pravara Rural College of Engineering, Loni, Pravaranagar, Ahmednagar.",Nashik,Rural," A/P.Loni, Tal.Rahata  Dist.Ahmednagar ",Ahmednagar,273204,principal@pravaraengg.org.in,www.pravaraengg.org.in,Mr. B. M. Pansare,273204,Un-Aided,Non-Autonomous
"Sanjivani Rural Education Society's Sanjivani College of Engineering, Kopargaon",Nashik,Rural,"Sahajanand Nagar, Po : Shingnapur, Tal : Kopargaon, Dist. Ahmednagar ",Ahmednagar,222469,principalcoe@sanjivani.org.in,www.sanjivanicoe.org.in,Shri K.M. Bhavsar,9130191301,Un-Aided,Autonomous
"Dr. Vithalrao Vikhe Patil College of Engineering, Ahmednagar",Nashik,Rural,"vadgaon Gupta, Vilad Ghat, P.O.-MIDC, Ahmednagar ",Ahmednagar,2779496,prin_coea@yahoo.com,www.enggnagar.com,Mr. A.T.Bhosale,2777296,Un-Aided,Non-Autonomous
"Amrutvahini Sheti & Shikshan Vikas Sanstha's Amrutvahini College of Engineering, Sangamner",Nashik,Rural,"P.O.: Sangamner Sakhar Karkhana, Tal : Sangamner, Dist. Ahmednagar",Ahmednagar,259148,principal@avcoe.org,www.avcoe.org, Prof. V. P. Waghe,259096,Un-Aided,Non-Autonomous
"P.S.G.V.P. Mandal's D.N. Patel College of Engineering, Shahada, Dist. Nandurbar",Nashik,Rural,"Poojya Sane Guruji Vidya Prasarak Mandal's, D.N. Patel College of Engineering, Shahada, Dist. Nandurbar",Nandurbar,229649,principal@coeshahada.ac.in,www.coeshahada.ac.in,Shri. D. N. Patil,229649,Un-Aided,Non-Autonomous
"Sanjay Education Society's College of Engineering, Navalnagar",Nashik,Rural,"Navalnagar, Tal & Dist. Dhule ",Dhule,260245,coenavalnagar@gmail.com,www.sescoe.org,Prof. P. R. Gawande ,260238,Un-Aided,Non-Autonomous
"T.M.E. Society's J.T.Mahajan College of Engineering, Faizpur",Nashik,Rural,"Jivram Nagar, ,Nhavi Marg, PO:Faizpur(MSSK),  Dist. Jalgaon ",Jalgaon,248179,jtmcoef@rediffmail.com,www.jtmcoef.ac.in,Pradip Vishnu Chaudhari,248256,Un-Aided,Non-Autonomous
"Nagaon  Education Society's Gangamai College of Engineering, Nagaon, Tal Dist Dhule",Nashik,Rural,"Nagaon At Post. Nagaon, Tal&Dist.  Dhule",Dhule,243000,nagaonengg@rediffmail.com,www.gangamaiengg.org,Shri. J. F. Patil,243170,Un-Aided,Non-Autonomous
"Hindi Seva Mandal's Shri Sant Gadgebaba College of Engineering & Technology, Bhusawal",Nashik,Rural,"Near Z.T.C Bhusawal, Dist. Jalgaon",Jalgaon,221719,rps125@rediffmail.com,www.ssgbcoet.com,Dr R P Singh,221719,Un-Aided,Non-Autonomous
"Godavari Foundation's Godavari College Of Engineering,  Jalgaon",Nashik,Urban,"Plot No.51, Dr. Ulhas Patil Nagar, Additional MIDC, Bhusawal Road, N.H.No.6, Jalgaon",Jalgaon,2213500,gcoe2008@gmail.com,engg.godavarifoundation.org,Ishwar Shenfadu Jadhav,2212999,Un-Aided,Non-Autonomous
"R. C. Patel Institute of Technology, Shirpur",Nashik,Urban,"Near Nimzari Naka, Shirpur Dist. Dhule",Dhule,259600,registrar@rcpit.ac.in,www.rcpit.ac.in,Prashant Mahajan,259600,Un-Aided,Non-Autonomous
"SNJB's Late Sau. Kantabai Bhavarlalji Jain College of Engineering,  (Jain Gurukul), Neminagar,Chandwad,(Nashik)",Nashik,Rural,"Jain Gurukul, Neminagar, Chandwad Dist.  Nashik",Nashik,253752,principalcoe@snjb.org,www.snjb.org,Mr. Jadhav M M,205527,Un-Aided,Non-Autonomous
"G. H. Raisoni College of Engineering and Management, Ahmednagar",Nashik,Rural,"G.No.1030, At/Post-Chas,Nagar-Pune Road, Ahmednagar",Ahmednagar,2570123,ghrcemahm@raisoni.net,ghrcemahm.raisoni.net,Mr.Sunil R.Dhobe,2570123,Un-Aided,Non-Autonomous
"Matoshri College of Engineering and Research Centre, Eklahare, Nashik",Nashik,Rural,"At Post Eklahare, Taluka & District Nashik",Nashik,2406600,gkkharate@rediffmail.com,www.mcoerc.org,Mr. Nagare Baban .T.,2406600,Un-Aided,Non-Autonomous
"Vishwabharati Academy's College of Engineering, Ahmednagar",Nashik,Rural,"Sarola Baddi ,Jamkhed Road ,  Ahmednagar",Ahmednagar,2660033,principal_vacoea@yahoo.com,www.vacoea.com,Mr.Bargale R.P.,2660033,Un-Aided,Non-Autonomous
"Kalyani Charitable Trust, Late Gambhirrao Natuba Sapkal College of Engineering, Anjaneri, Trimbakeshwar Road, Nashik",Nashik,Rural,"Sapkal Knowldege Hub,Kalyani Hills, Anjaneri- Wadholi, Tal. Trimbak, Nashik",Nashik,220175,gns_engineering@sapkalknowledgehub.org,www.sapkalknowledgehub.org,Mr. Nitin G. Jaware,220175,Un-Aided,Non-Autonomous
"Shri Chhatrapati Shivaji College of Engineering, (Rahuri Factory), Tal.Rahuri, Dist.Ahmednagar",Nashik,Rural,"Shree Shivaji Nagar (Rahuri Factory), Tal. Rahuri,  Dist. Ahmednagar ",Ahmednagar,9156532111,scsc_eng@yahoo.in,www.scscoe.org,Shri. Adhav Yogesh Janardhan,251200,Un-Aided,Non-Autonomous
"A.J.M.V.P.S. Institute of Hotel Management & Catering Technology College, Ahmednagar",Nashik,Urban,"Lal Taki Road, Near Law College, Ahmednagar",Ahmednagar,2326778,ihmctajmvps@gmail.com,www.ihmct.in,Idhate P. B.,2326778,Un-Aided,Non-Autonomous
"Mahatama Gandhi Vidyamandir's College of Hotel Management & Catering Technology , Nashik",Nashik,Urban,"Mumbai-Agra Highway, Panchavati, Nashik",Nashik,2628281,mgvihmct@rediffmail.com,www.mgv.edu/hmct,Aashok Ghumare,2628281,Un-Aided,Non-Autonomous
"Pravara Rural Education Society's Padmashri Dr. Vittalrao Vikhe Patil Institute of Technology and Engineering Polytechnic ,Pravaranagar",Nashik,Rural,"A/P Loni Bk.-413 713, Taluka Rahata,Ahmednagar  413736",Ahmednagar,273484,principal.polyloni@pravara.in,www.pravara.in,Shri. P.J. Dangat,272151,Un-Aided,Non-Autonomous
"Mgts Mandal's Sharadchandrika Suresh Patil Institute Of Technology(Polytechnic), Chopda",Nashik,Rural,"Yawal Road, Chopda Jalgaon , 425107",Jalgaon,222100,0061principal@msbte.com,www.polychopda.org,Shri.P.A.Deshmukh,222100,Un-Aided,Non-Autonomous
"Shree Sant Muktabai Sansthan's Shri Sant Muktabai Institute of Technology, Jalgaon",Nashik,Urban,"B.J Nagar Pimparala Road, P.Box No 132, Jalgaon , 425001",Jalgaon,2250776,smitcollegejalgaon@gmail.com,www.muktaieducation.org,Patil Diwakar Jijabrao ,2250500,Un-Aided,Non-Autonomous
"Technical & Medical Education Society's J. T. Mahajan Polytechnic, Faizpur",Nashik,Rural,"Nhavimarg, Faizpur Jalgaon , 425524",Jalgaon,248556,jtmpfaiz@gmail.com,www.jtmpoly.ac.in,Shri.Ramanlal Ghanashyam Mahajan,248156,Un-Aided,Non-Autonomous
"MET's Institute of Technology Polytechnic, Bhujbal Knowledge City, Adgaon Nashik",Nashik,Urban,"Bhujbal Knowledge City, Adgaon ,Nashik 422003",Nashik,2555825,principal_iot@bkc.met.edu,www.metbhujbalknowledgecity.ac.in,S. N. PILLAI,2555825,Un-Aided,Non-Autonomous
"Kai. Vanjibaba Gramin Vikas Mandal, Shantidevi Chavhan Institute of Engineering & Technology, Chalisgaon",Nashik,Rural,"Survey No. 94/3/1 & 2, At Post Bhoras, Tal Chalisagtion,  Jalgaon , 424101",Jalgaon,257357,1004principal@msbte.com,www.sscpolycsn.com,PATIL S.H.,257356,Un-Aided,Non-Autonomous
"Trimurti Shikshan Prasarak Mandal, Trimurti Institute Of Technology, Paladhi Bk, Jalgaon",Nashik,Rural,"Survey No.227/2, Paldhi Bk, Next To North Maharashtra University, Tal-Dhamangaon, Dist:Jalgaon ",Jalgaon,202292,manojpatil9737@rediffmail.com,www.tspmjalgaon.com,manoj patil,202292,Un-Aided,Non-Autonomous
"The People Education Society's, Diploma College Of Enggineering & Technology,Jamkhed",Nashik,Urban,"Behind Police Line,Jamkhed Dist. Ahmednagar  413201",Ahmednagar,221222,pesdcet@gmail.com,www.pesjamkhed.com,Dahale S.H,221233,Un-Aided,Non-Autonomous
"Kisan Dnyanoday Mandal Gudhe's Dr. Uttamrao Mahajan Institute Of Engineering & Technology,Chalisgaon, Jalgaon",Nashik,Rural,"Gat No.140 2 A/1,140 2 A/2, Aurangabad Byepass Road, Chalisgaon Dist-Jalgaon 424101",Jalgaon,202252,1178principal@msbte.com,www.kdmgsinstitutions.co.in,Dr. H. U. Mahajan,202252,Un-Aided,Non-Autonomous
"Matoshri Education Soceity, Matoshri Institute Of Technology, Dhanore, Nashik",Nashik,Rural,"Dhanore Tal.Yeola, Dist.Nashik  423401",Nashik,267560,mityeola@gmail.com,www.mityeola.in,Mr.R P Phad,267561,Un-Aided,Non-Autonomous
"Mahatma Gandhi Vidyamandir's Institute Of Industrial & Pharmaceutical Technology, Nashik",Nashik,Urban,"MUMBAI-AGRA HIGHWAY, PANCHAVATI, NASHIK-422003 ",Nashik,2628201,mgv.iipt@gmail.com,www.mgv.org.in,Mr Ravindra Vishwanath Sonar,2511931,Un-Aided,Non-Autonomous
"Shri.Sant Muktabai  Santha's Institute  of Technology, Jalgaon",Nashik,Urban,"B.J.Nagar, Pimprala Road, P.O.Box No.132, Jalgaon 425001 (M.S.) ",Jalgaon,2250776,smitcollegejalgaon@gmail.com,www.muktaieducation.org,Mr. D.J.Patil,2250500,Un-Aided,Non-Autonomous
"Mahatma Gandhi Vidya Mandir Institute Of  Hotel Management And Catering Technology,Nashik",Nashik,Urban,"Panchavati,Mumbai-Agra Road, Nashik 422003",Nashik,2628281,mgvdhmct@gmail.com,www.mgv.org.in,Mr Sanjay Keshav Kadwe,2628283,Un-Aided,Non-Autonomous
"Pune Vidyarthi Griha's College Of Engineering, Nashik",Nashik,Urban,"206, Dindori Road, Near Meri, Mhasrul, Nashik",Nashik,6480003,pvgcoenashik@gmail.com,pvgcoenashik.org,Mr S.N.Gunjal,6480036,Un-Aided,Non-Autonomous
"Amruta Vaishnavi Education & Welfare Trust's Shatabdi Institute of Technology, Agastkhind, Tal Sinner",Nashik,Rural,"Srv. No. 2, At. Post Agastkhind, Tal Sinner Dist. Nashik 422502",Nashik,02551304,1473principal@msbte.com,www.sitp.co.in,Akolkar Naresh Shashikant,02551304,Un-Aided,Non-Autonomous
"Seva Shikshan Prasarak Mandal, Dr. N. J. Paulbudhe Institute of Technology, Narayandoho Tal Nagar, Ahmednagar
",Nashik,Rural,Gate No. 479 At. Post Narayandoho Tal Nagar Dist. Ahmednagar,Ahmednagar,2030627,polytech_paulbudhe@yahoo.in,sspm.online.org.in,MR. KARAMPURI R.S.,2030626,Un-Aided,Non-Autonomous
"Nashik Institute of Technology, Late Annasaheb Patil Polytechnic , Dindori Road Cannol road ,MERI ,Nashik",Nashik,Urban,"Srv. No,.155 / 1A Dindori Road Cannol road MERI Nashik ",Nashik,2629777,principal@nitnasik.com,www.nitnasik.com,Mr. JAGTAP M.P.,2024121,Un-Aided,Non-Autonomous
"Godavari Foundation,Dr.Varsha Patil Institute of Technology, Jalgaon",Nashik,Rural,Jalgaon  425309,Jalgaon,77200899,dvpit2010@gmail.com,www.dvpit.in,S.D.Bendale,77200899,Un-Aided,Non-Autonomous
"Shri. Jaykumar Rawal Institute of Technology, Dondaicha.",Nashik,Rural,"At Post Dondaicha, Dist. Dhule",Dhule,244123,5381jaytech@gmail.com,www.jaytech.co,MR SHAMKUMAR BHAVSAR,0256244123,Un-Aided,Non-Autonomous
"Ahmednagar Jilha Maratha Vidya Prasarak Samajache, Shri. Chhatrapati Shivaji Maharaj College of Engineering, Nepti",Nashik,Rural,"Survey No. 162& 163, Nepti, Nagar Kalyan Road, Ahmednagar",Ahmednagar,2568384,scsmcoe.anr@hotmail.com,www.scoea.org,Mr. M. B. Amrute,2568383,Un-Aided,Non-Autonomous
"Shree Saibaba Institute of Engineering, Research & Allied Sciences, Rahta.",Nashik,Rural,"At Post Rahta, Taluka Rahata, Dist. Ahmednagar",Ahmednagar,204578,shrisaibabaengg@gmail.com,www.shrisaibabaengg.org,Rohamare R.V.,204580,Un-Aided,Non-Autonomous
"Akole Taluka Education Society,s Technical Campus, Akole, Ahmednagar",Nashik,Rural,"Akole, Tal. Akole, Dist. Ahmednagar",Ahmednagar,95957577,akole2011@gmail.com,www.atestc.com,Wakchaure Santosh Tukaram,221123,Un-Aided,Non-Autonomous
"Ashok Institute of Engineering & Technology(Polytechnic), Shrirampur.",Nashik,Rural,"Ashok Nagar, Tal.Shrirampur, Dist. Ahmednagar.413717",Ahmednagar,246021,ashoktech_ashoknagar@yahoo.com,www.ashokpolytechnic.org,Thorat Sachin N,246021,Un-Aided,Non-Autonomous
"College of Engineering and Technology ,North Maharashtra Knowledge City, Jalgaon",Nashik,Rural,"Gat No 166 Bambhori, Jalgaon",Jalgaon,02588202,nmkcjalgaon49@gmail.com,www.nmkcj.org,Rohit C Patil,93714,Un-Aided,Non-Autonomous
"Jawahar Education Society's Institute of Technology, Management & Research, Nashik.",Nashik,Rural,"Survey No.48, Gowardhan, Gangapur Road, Nashik.",Nashik,2970077,principaljitnashik@rediffmail.com,www.jitnashik.edu.in,Mr. Jagdish V. Patil,2970077,Un-Aided,Non-Autonomous
"Gurukul Education Society's Institute of Engineering & Technology, Nandgaon",Nashik,Rural,"S.No. 34/1B, & 34/2, At Phule Nagar, Post Nandgaon, Tal. & Dist. Nashik.",Nashik,243488,1607principal@msbte.com,www.gurukulpolytechnic.org,MR.NILLESH S.VAIDYA,243488,Un-Aided,Non-Autonomous
"Vidya Niketan College of Engineering, Bota Sangamner",Nashik,Rural,"Gat No. 670, Vidya Nagari, Pune Nashik Road, at post Bota, TalSangamner, Dist. Ahmednagar.",Ahmednagar,8600888433,vncoe.principal@gmail.com,www.vidyaniketanglobal.com,SANDIP BHAIK,8600888433,Un-Aided,Non-Autonomous
"Rajiv Gandhi College of Engineering, At Post Karjule Hariya Tal.Parner, Dist.Ahmednagar",Nashik,Rural,"At Post Karjule Harya, Tal. Parner, Dist Ahmednagar",Ahmednagar,9604049525,rajivgandhi.iot@gmail.com,www.rgcoe.org,Mr.Pawar Santosh Barku,295101,Un-Aided,Non-Autonomous
"Maulana Mukhtar Ahmad Nadvi Technical Campus, Malegaon.",Nashik,Rural,"Mansoora, Malegaon-Manmad Road, P.B.No.144, Malegaon, Nashik.",Nashik,9970178118,mmantc@gmail.com,www.mmantc.in,Mr.Hamid Ajij Shaikh ,02554,Un-Aided,Non-Autonomous
"Nikam Institute of Technology(Polytechnic),Dhule",Nashik,Rural,"Morane-Gondur byPass road,Gondur",Dhule,297309,5414nikampoly@gmail.com,www.nitgondur.org,JITENDRA ANANDRAO SONAWANE,297309,Un-Aided,Non-Autonomous
"Guru Gobind Singh College of Engineering & Research Centre, Nashik.",Nashik,Urban,"Khalsa Educational Complex, Guru Gobind Singh Marg, Nashik.",Nashik,2372766,gcoerc.nashik@ggsf.edu.in,www.ggsf.edu.in,Manoj Koli,2372766,Un-Aided,Non-Autonomous
"Mauli Institute of Technology (Polytechnic), Amalner, Dist. Jalgaon",Nashik,Rural,"Gut No.25/1/A, Dheku Road, Ambasan Dheku, Amalner, District Jalgaon. ",Jalgaon,7588007270,maulipoly@gmail.com,www.maulipoly.com,MR.SWAPNIL PATIL,218200,Un-Aided,Non-Autonomous
"Shri. Sai Institute of Technology, Amalner",Nashik,Rural,"Gat NO.15/1, Devli/Devgaon, Tal.Amalner, Dist Jalgaon.",Jalgaon,9423479388,php_pune@rediffmail.com,shrisaiinstituteoftechnology.org,Prakash H. Patil,218312,Un-Aided,Non-Autonomous
"Shri Vile Parle Kelavani Mandal's Institute of Technology, Dhule",Nashik,Urban,"Survey No. 499/1, Plot No.2, Behind Gurudwara, Mumbai Agra Highway, Dhule",Dhule,2562297801,IOTDhule@svkm.ac.in,www.svkm-iot.ac.in,Mr. Anmol Suryavanshi,2562297801,Un-Aided,Non-Autonomous
"Government College of Engineering & Research, Avasari Khurd",Pune,Rural,"Avasari, Tal. Ambegaon. Dist. Pune",Pune,230582,gcoeara@gmail.com,www.gcoeara.ac.in,"I/c Registrar, Shri. C.A. Suryawanshi",230582,Government,Non-Autonomous
"Government College of Engineering, Karad",Pune,Rural,"Vidyanagar, Karad  Dist. Satara",Satara,272415,principal@gcekarad.ac.in,www.gcekarad.ac.in,Mr. D. Y. Peraspure,272414,Government,Autonomous
"College of Engineering, Pune",Pune,Urban,"Wellesly Road, Shivaji Nagar, Pune",Pune,25507001,director@coep.ac.in,www.coep.org.in,0,25507000,Government,Autonomous
"Walchand College of Engineering, Sangli",Pune,Urban,"Walchand College of Engineering, Vishram Bagh, Sangli",Sangli,2305506,director@walchandsangli.ac.in,www.walchandsangli.ac.in,Dr. D. B. Kulkarni,2303433,Government-Aided,Autonomous
"Institute of Civil and Rural Engineering(aided), Gargoti, Kolhapur",Pune,Rural,"Hutatma Murlidhar Nagar, Gargoti, Kolhapur  416209",Kolhapur,220249,icre_gargoti@rediffmail.com,www.icregargoti.org,Shri Bhoite P.D.,220069,Government-Aided,Non-Autonomous
"Maharashtra  Institute of  Printing Technology(Aided), Pune",Pune,Urban,"1786, Sadashiv Peth Pune , 411030",Pune,24470573,mipt.pvg@gmail.com,www.pvgmipt.ac.in,Mr.A.B.Mahadik,24479058,Government-Aided,Non-Autonomous
"Cusrow Wadia Institute of Technology( Aided ), Pune ",Pune,Urban,"19, Bundgarden Rd.,Pune Pune , 411001",Pune,26161310,cwitpune@rediffmail.com,www.cwitpune.com,Shri S. R. Abnave,26164814,Government-Aided,Autonomous
"Maharashtra State Institute of Hotel Management & Catering Technology,Pune",Pune,Urban,"412-C, Shivaji Nagar, Pune , 411016",Pune,25676640,office.msihmcpune@dtemaharashtra.gov.in,www.msihmctpune.edu.in,Mrs. Sunita Jagtap,25677189,Government,Autonomous
"Department of Technology, Shivaji University, Kolhapur",Pune,Rural,"Vidyanagar, Kolhapur",Kolhapur,2605972,director.tech@unishivaji.ac.in,www.unishivaji.ac.in,Dr.V.D.Nandavadekar,2605970,University Department,Non-Autonomous
"Sinhgad Technical Education Society's Sinhgad Institute of Management, Vadgaon (Budruk), Pune",Pune,Urban,"S. No. 44/1, Opp Sinhagad Road, Vadgaon (Budruk), Pune  411041",Pune,24355531,director_siom@sinhgad.edu,www.sinhgad.edu,Mrs.Rupali Warokar,24356592,Un-Aided,Non-Autonomous
"Vidya Pratishthan Institute of Information Technology, Baramati, Pune",Pune,Rural,"Vidyanagari, Bhigwan Road, Baramati Dist. Pune  413133",Pune,239555,info@viitindia.org,www.viitindia.org,Mr. Sanjay Jagtap,239555,Un-Aided,Non-Autonomous
"Progressive Education Society's Modern College of Engineering, Pune",Pune,Rural,"P.E.S. Modern College of Engineering, 1186 A, Shivajinagar, Off. J.M. Road, Pune ",Pune,25533638,pesmcoe@gmail.com,www.moderncoe.edu.in,Mr. D. D. Gangurde,25533638,Un-Aided,Non-Autonomous
"Jaywant Shikshan Prasarak Mandal's,Rajarshi Shahu College of Engineering, Tathawade, Pune",Pune,Urban,"S. No. 80/3, Mumbai Pune Bypass Highway,  Tathawade,Tal-Munshi, Dist. Pune",Pune,22934347,rscoe@jspm.edu.in,www.rscoe.org,Dr. Amey A Choudhari,22933423,Un-Aided,Autonomous
"Genba Sopanrao Moze College of Engineering, Baner-Balewadi, Pune",Pune,Urban,"Survey No. 25/1/3, Infront of Chatrapati Shivaji Sports Stadium, Balewadi, Tal. Haveli, Dist. Pune",Pune,27390064,ratnaraj.jambi@gmail.com,www.gsmozecoe.org,Ratna Raja Kumar,27390500,Un-Aided,Non-Autonomous
"JSPM'S Jaywantrao Sawant College of Engineering,Pune",Pune,Urban,"S. No. 58, Indrayani Nagar, Handewadi Road, Hadapsar, Pune",Pune,26970983,drmgjadhav@gmail.com,www.jspm.edu.in,Gawade J.R.,26970886,Un-Aided,Non-Autonomous
"MIT Academy of Engineering,Alandi, Pune",Pune,Urban,"Alandi (D) Tal. Khed, Dist. Pune",Pune,30253600,principal@maepune.ac.in,www.mitaoe.ac.in,Mr. Manoj N Bade,30253500,Un-Aided,Autonomous
"MAEER's M.I.T. College of Engineering , Kothrud, Pune",Pune,Urban,"S.No. 124, Ex. Serviceman Colony, MIT College Campus, Paud Road, Kothrud, Pune",Pune,30273400,principal@mitcoe.edu.in,www.mitcoe.edu.in,Mr. Yogesh B. Shedge,30273400,Un-Aided,Non-Autonomous
"Choudhary Attar Singh Yadav Memorial Trust,Siddhant College of Engineering, Maval",Pune,Rural,"Chakan Talegaon Road, At Post Sudumbare, Tal. Maval Dist. Pune",Pune,661966,engineeringprincipal@gmail.com,www.siddhantcoe.edu.in,Miss Babar.D.R,661904,Un-Aided,Non-Autonomous
"Maharashtra Institute of Technology, Kothrud, Pune",Pune,Urban,"Paud Road,Survey No. 124, Ex-Servicemen Colony Paud Road, Kothrud, Pune",Pune,30273456,mit@mitpune.com,www.mitpune.com,ABHAY BIRARI,30273400,Un-Aided,Non-Autonomous
"G.H.Raisoni College of Engineering & Management, Wagholi, Pune",Pune,Urban,"Gat No. 1200 , Domkhel Road, Wagholi,Tal-Haveli, Dist. Pune",Pune,9921580670,ghrcem.pune@raisoni.net,ghrcem.raisoni.net,Mr. S. H. Karande,9921580670,Un-Aided,Autonomous
"JSPM's Imperial College of Engineering and Research, Wagholi, Pune",Pune,Rural,"Gat No. 720/2, Pune-Ahmadnagar Road, Wagholi, Tal- Haveli,  Dist. Pune",Pune,67335102,principal@jspmicoer.edu.in,www.jspmicoer.edu.in,Dr . A. W. Dhawale,67335100,Un-Aided,Non-Autonomous
"Pimpri Chinchwad Education Trust, Pimpri Chinchwad College of Engineering, Pune",Pune,Urban,"Sector 26, Pradhikaran,  Nigdi Pradhikaran, Pune ",Pune,27653168,pccoeadmin@gmail.com,www.pccoepune.com,Mr. P. S. Patil,27653168,Un-Aided,Non-Autonomous
"G. H.Raisoni Institute of Engineering and Technology, Wagholi, Pune",Pune,Urban,"Gat No.1200, Navin Wagholi, Tal. Haveli  Dist. Pune",Pune,9604787185,r.kharadkar@raisoni.net,ghriet.raisoni.net,Prof Hate Sudhir ,9604787186,Un-Aided,Non-Autonomous
"Sinhgad College of Engineering, Vadgaon (BK), Pune",Pune,Urban,"44/1, Vadgaon,(bk) off Sinhgad Road Pune ",Pune,24354705,principal.scoe@sinhgad.edu,www.sinhgad.edu,V D Tayade,24100000,Un-Aided,Non-Autonomous
"Sinhgad Technical Education Society's Smt. Kashibai Navale College of Engineering,Vadgaon,Pune",Pune,Urban,"S. No. 44/1, Vadgaon(bk) off Sinhgad Road, Pune",Pune,24354938,principal.skncoe@sinhgad.edu,www.sinhgad.edu,KAVITA SHIRISH BORGAVE,24354938,Un-Aided,Non-Autonomous
"Indira College of Engineering & Management, Pune",Pune,Rural,"Survey No.64,65,Gat No.276, At Post Parandwadi, Near Somatne Phata, Tal- Maval Dist. Pune",Pune,661500,principal@indiraicem.ac.in,www.indiraicem.ac.in,Mr.Gajanan T. Adke,661500,Un-Aided,Non-Autonomous
"Al-Ameen Educational and Medical Foundation, College of Engineering, Koregaon, Bhima",Pune,Rural,"Sharad Campus Pimpal, Jagtap Road A/P, Koregaon Bhima Tal-Shirur, Pune",Pune,646010,alameenpune@gmail.com,www.alameencoe.com,SHAIKH TANVEER SABIR,646015,Un-Aided,Non-Autonomous
"K. J.'s Educational Institut Trinity College of Engineering and Research, Pisoli, Haveli",Pune,Rural,"S.No. 25/27, Pisoli, Tal.Haveli Dist. Pune",Pune,8446041199,trinitycoe@gmail.com,www.kjei.edu.in,Mr.Prashant Renushe,8446041199,Un-Aided,Non-Autonomous
"Sinhagad Institute of Technology, Lonavala",Pune,Rural,"Gat No.309/310/314, Pune-Mumbai Express Highway, kasgaon(BK), Lonavala Pune , 410401",Pune,673353,principal_sit@sinhgad.edu,www.sinhgad.edu,D R RAUT,673356,Un-Aided,Non-Autonomous
"Sinhgad Academy of Engineering, Kondhwa (BK)  Kondhwa-Saswad Road, Pune",Pune,Rural,"S.No.40/4A, Kondhwa(BK), Kondhwa-Saswad Road, Pune ",Pune,26934550,saeprincipal@sinhagad.edu,www.sinhgad.edu,S.N. Kamat,26934441,Un-Aided,Non-Autonomous
"Marathwada Mitra Mandal's Institute of Technology, Lohgaon, Pune",Pune,Rural,"Survey No.35, Plot No. 5/6, Lohgaon Tal. Haveli Dist. Pune",Pune,9049008003,principal@mmit.edu.in,www.mmit.edu.in,Uday Wankhede,7447786623,Un-Aided,Non-Autonomous
"Pune District Education  Association's College of Engineering, Pune",Pune,Rural,"Hadapsar-Manjari Road, Manjari(BK),Dist. Pune ",Pune,26996625,coem@pdeapune.org,www.pdeacoem.org,VAIDYA M C,26996275,Un-Aided,Non-Autonomous
"Dr. D. Y. Patil Vidya Pratishthan Society’s Dr. D. Y. Patil Institute of Technology, Pimpri, Pune",Pune,Urban,"Sant Tukaram Nagar, Pimpri, Pune“",Pune,27421096,info.engg@dypvp.edu.in,www.engg.dypvp.edu.in,Mr. Babasaheb Powar (Office-Superintendent),27421095,Un-Aided,Non-Autonomous
"K. E. Society's Rajarambapu Institute of Technology, Walwa, Sangli",Pune,Rural,"Rajaramnagar, A/p. Sakhrale, Tal: Walwa   Dist. Sangli ",Sangli,221001,director@ritindia.edu,www.ritindia.edu,Mrs. Sarika D. Patil ,220329,Un-Aided,Autonomous
"Shri Vithal Education and Research Institute's College of Engineering, Pandharpur",Pune,Rural,"P.O. Box No. 54, Gopalpur - Ranjani Road,   Gopalpur,  Pandharpur Dist. Solapur",Solapur,9545553737,coe@sveri.ac.in,www.sveri.ac.in,Mr. R. G. Zarkar ,7767003431,Un-Aided,Non-Autonomous
"Dattajirao Kadam Technical Education Society's Textile & Engineering Institute, Ichalkaranji.",Pune,Urban,"Post Box No. 130, Rajwada, Ichalkaranji. Dist. Kolhapur",Kolhapur,2437311,dktestextile@gmail.com,www.dktes.com,Rajendra R Shah,2421300,Un-Aided,Autonomous
"Pradnya Niketan Education Society's Nagesh Karajagi Orchid College of Engineering & Technology, Solapur",Pune,Rural,"Post Box No.154,Gut No. 16, Hipparanga, Tuljapur Road, North Solapur ",Solapur,2500021,office@orchidengg.ac.in,www.orchidengg.ac.in,Mr. Shelke S. S.,2500020,Un-Aided,Non-Autonomous
"Dattajirao Kadam Technical Education Society's Textile & Engineering Institute, Ichalkaranji.",Pune,Urban,"Post Box No. 130, Rajwada, Ichalkaranji. Dist. Kolhapur",Kolhapur,2437311,dkte@sancharnet.in,www.dktes.com,SHRI RAJENDRA R. SHAH,2421300,Un-Aided,Non-Autonomous
"Sinhgad Technical Education Society's Sinhgad Institute of Management ,Vadgaon(Budruk),Pune",Pune,Urban,"S. No. 44/1, Opp Sinhagad Road, Vadgaon (Budruk), Pune 411041",Pune,24100000,directormca_siom@sinhgad.edu,www.sinhgad.edu,Mrs. Rupali Warokar,24358360,Un-Aided,Non-Autonomous
"Deccan Education Society's Technical Institute ,Pune",Pune,Urban,"BMCC Road, Opposite to IMDR, Fergussons Campus, Pune",Pune,67656282,principal@destip.org,www.destip.org,Dr. Raviprakash H. Dongre,67656281,Government-Aided,Non-Autonomous
"Sinhgad Technical Education Society, Sinhgad Institute of Management & Computer Application, Narhe (Ambegaon), Pune",Pune,Rural,"At Post Narhe, (Ambegaon), Off,Westerly by pass Pune- 411041",Pune,66831907,director_mca_simca@sinhgad.edu,www.sinhgad.edu,Manish Kasabekar,66831922,Un-Aided,Non-Autonomous
"D.Y. Patil College of Engineering and Technology, Kolhapur",Pune,Urban,"Kasaba Bavada,Taluka Karveer,Kolhapur",Kolhapur,2601433,info.dypcet@dypgroup.edu.in,coek.dypgroup.edu.in,Dr. Litesh Vasanji Malade,2601432,Un-Aided,Non-Autonomous
"Maharashtra Academy of Engineering & Educational Research's Maharashtra Institute of Pharmacy, Pune",Pune,Urban,"S.No.124, MIT Campus, Ex-servicemen Colony,  Paud Road, Kothrud, Pune ",Pune,30273673,maeersmippune@gmail.com,www.mippune.edu.in,Mr. L. T. Borade,30273653,Un-Aided,Non-Autonomous
"Walchand Institute of Technology, Solapur",Pune,Urban,"Solapur Seth Walchand Hirachand Marg, Ashok Chowk, P.B. No.634, Solapur",Solapur,2652700,principal.witsolapur@gmail.com,www.witsolapur.org,K.S.Patil,2652700,Un-Aided,Non-Autonomous
"Shetkari Shikshan Mandal's Pad. Vasnatraodada Patil Institute of Technology, Budhgaon,(Diploma) Sangli",Pune,Rural,"PVPIT), Budhgaon, Tasgaon Rd., Tal : Miraj ",Sangli,2366500,0045principal@msbte.com,www.pvpitsangli.edu.in,Mr. Ashok Raghunath Kale,2366317,Un-Aided,Non-Autonomous
"Kolhapur Institute of Technology's College of Engineering(Autonomous), Kolhapur",Pune,Rural,"R.S. No. 199, B/1-3, Gokul_Shirgaon,Tal: Karveer Kolhapur , 416234",Kolhapur,2636202,info@kitcoek.in,www.kitcoek.in,Dr. M. M. Mujumdar,7769001199,Un-Aided,Autonomous
"Tatyasaheb Kore Institute of Engineering and Technology, Warananagar",Pune,Rural,"At & Post - Warananagar Taluka : Panhala Kolhapur , 416113",Kolhapur,224012,principal@tkietwarana.ac.in,www.tkietwarana.ac.in,Mr. D. S. Thombare,224012,Un-Aided,Non-Autonomous
"Rayat Shikshan Sanstha's Karmaveer Bhaurao Patil College of Engineering, Satara",Pune,Urban,"Rayat Shikshan Sanstha's Karmaveer Bhaurao Patil College of Engineering, Near Circuit House, Sadar Bazar, Camp-Satara",Satara,233005,registrar@kbpcoes.edu.in,www.kbpcoes.edu.in,Mr. Ganesh Kisan Suravase,230636,Un-Aided,Non-Autonomous
"Pune Institute of Computer Technology, Dhankavdi, Pune",Pune,Urban,"Sr.No. 27, Pune -Satara Road,Dhankavdi, Pune ",Pune,24371101,principal@pict.edu,www.pict.edu,Mr. M. G. Kshatriya,24371101,Un-Aided,Non-Autonomous
"Dr. D. Y. Patil Pratishthan's D.Y.Patil College of Engineering Akurdi, Pune",Pune,Urban,"Sector-29,Nigdi Pradhikaran, Akurdi, Pune",Pune,27653058,principal@dypcoeakurdi.ac.in,www.dypcoeakurdi.ac.in,Dr. N. S. Jain,27653054,Un-Aided,Non-Autonomous
"Bansilal Ramnath Agarawal Charitable Trust's Vishwakarma Institute of Technology, Bibwewadi, Pune",Pune,Urban,"666, Upper Indira Nagar, Bibwewadi, Pune",Pune,24202221,registrar@vit.edu,www.vit.edu,Prof. Ganesh D. Korwar,24283001,Un-Aided,Autonomous
"Pune Vidyarthi Griha's College of Engineering and Technology,  Pune",Pune,Urban,"44, Vidyanagari, Parvati, Shivdarshan Chowk, Near Muktangan English School, Pune",Pune,24211514,info@pvgcoet.ac.in,www.pvgcoet.ac.in,HADAP MEENA PRASAD,24228258,Un-Aided,Non-Autonomous
"Shivnagar Vidya Prasarak Mandal's College of Engineering, Malegaon-Baramati",Pune,Rural,"Malegaon BK, Tal: Baramati Dist. Pune",Pune,255113,coembk.office@gmail.com,www.engg.svpm.org.in,Phalke Rajaram Babasaheb,255113,Un-Aided,Non-Autonomous
"MKSSS's Cummins College of Engineering for Women, Karvenagar,Pune",Pune,Urban,"Karvenagar, Pune",Pune,25311100,administrator@cumminscollege.org,www.cumminscollege.org,Smt. Revati Gore,25311000,Un-Aided,Autonomous
"Dr. J. J. Magdum  Charitable Trust's Dr. J.J. Magdum College of Engineering, Jaysingpur",Pune,Rural,"Gat no. 314/330, Shirol wadi road, Jaisingpur Dist. Kolhapur",Kolhapur,221828,principal@jjmcoe.ac.in,www.jjmcoe.ac.in,Shri S.B. Kolekar,221123,Un-Aided,Non-Autonomous
"All India Shri Shivaji Memorial Society's College of Engineering, Pune",Pune,Urban,"Kennedy Road, Near R.T.O., Pune",Pune,26059562,contact@aissmscoe.com,www.aissmscoe.com,Mr A B Bhonsle,26058587,Un-Aided,Non-Autonomous
"Modern Education Society's College of Engineering, Pune",Pune,Urban,"Wadia College Campus 19, Late Prin. V. K. Jog Path, Pune",Pune,26169730,principal@mescoepune.org,www.mescoepune.org,Mr S.S.Ingole,26163831,Un-Aided,Non-Autonomous
"Annasaheb Dange College of Engineering and Technology, Ashta, Sangli",Pune,Rural,At  Post : Ashta. Tal- Walwa Dist. Sangli ,Sangli,241115,profrak@rediffmail.com,www.adcet.in,Prof. S. B. Hivarekar,241107,Un-Aided,Autonomous
"Vidya Pratishthan's Kamalnayan Bajaj Institute of Engineering & Technology, Baramati Dist.Pune",Pune,Rural," Vidyanagari, Bhigwan Road, Baramati Dist. Pune ",Pune,239500,principal.vpkbiet@vidyapratishthan.com,www.vpkbiet.org,Mr. Satish H. Taware,239503,Un-Aided,Non-Autonomous
"Bharati Vidyapeeth's College of Engineering for Women, Katraj, Dhankawadi, Pune",Pune,Urban,"Katraj,Dhankawadi campus, Pune-Satara Road, Pune ",Pune,24371684,coewpune@bharatividyapeeth.edu,coewpune.bharatividyapeeth.edu,Mr. Sathe Ashok Tukaram,24371684,Un-Aided,Non-Autonomous
"Bharati Vidyapeeth's College of Engineering, Kolhapur",Pune,Rural,"Near Chitranagari, Kolhapur",Kolhapur,2639986,coekolhapur@bharatividyapeeth.edu,www.coekolhapur.bharatividyapeeth.edu,Mr. Kadam R. L.,2638894,Un-Aided,Non-Autonomous
"B.R.A.C.T's Vishwakarma Institute of Information Technology, Kondhwa (Bk.), Pune",Pune,Urban,Survey No.2/3/4 Kondhwa (Bk.) Pune,Pune,26950201,director@viit.ac.in,www.viit.ac.in,Mr. Mahesh S. Kurulekar ,26950200,Un-Aided,Autonomous
"Kai Amdar  Bramhadevdada Mane Shikshan & Samajik Prathistan's Bramhadevdada Mane Institute of Technology, Solapur",Pune,Rural,"Gat No.137, Solapur-Manglwedha-Kolhapur Highway,Taluka: North Solapur, Belati  Solapur",Solapur,2283822,bmit@bmssp.org,www.bmitsolapur.org,Mr Anand Siddharam Uppin,2283842,Un-Aided,Non-Autonomous
"Gourishankar Educational & Charitable Trust's Satara College of Engineering & Management, Limb, Satara",Pune,Rural,"Survey No.989,/A-1,  & 990/ At. Posty. Limb Taluka & District : Satara",Satara,268754,scoem_sat@yahoo.com,www.gourishankarengineering.org,Nirmal Pawar,268754,Un-Aided,Non-Autonomous
"Loknete Hanumantrao Charitable Trust's Adarsh Institute of Technology and Research Centre, Vita,Sangli",Pune,Rural,"Post Khamla(Bha.), Vita, Gat No.421,Tal- Khanapur Dist . Sangli",Sangli,229021,aitrc@agiv.edu.in,www.agiv.edu.in,Mr. A. D. Chavan,229021,Un-Aided,Non-Autonomous
"Dhole Patil Education Society, Dhole Patil College of Engineering, Wagholi, Tal. Haveli",Pune,Rural,"1284, Ubale Nagar, Wagholi, Taluka Haveli Dist. Pune ",Pune,66059900,dpcoepune@gmail.com,www.dpcoe.com,Pankaj P. Amrutkar,66059900,Un-Aided,Non-Autonomous
"Shanti Education Society, A.G. Patil Institute of Technology, Soregaon, Solapur(North)",Pune,Urban,"18(2 A/2) Pratap Nagar , Bijapur Road, Solapur",Solapur,2343099,contact@agpit.edu.in,www.agpit.edu.in, G N Kulkarni,2342499,Un-Aided,Non-Autonomous
"Nutan Maharashtra Vidya Prasarak Mandal, Nutan Maharashtra Institute of Engineering &Technology, Talegaon station, Pune",Pune,Urban,"Vishnupuri Talegaon Station, Taluka Mavel, Dist. Pune",Pune,231888,nmiettalegaon@gmail.com,www.nmiet.edu.in,Vijay Shirke,231666,Un-Aided,Non-Autonomous
"Jayawant Shikshan Prasarak Mandal, Bhivarabai Sawant Institute of Technology & Research, Wagholi",Pune,Urban,"Gut No. 720/1 & 2, Pune Nagar Road, Wagholi, Tal. Hawali Dist. Pune",Pune,67335108,pricipalbsiotr@gmail.com,www.bsiotr.org,Mr. Anuse Pritam Mahadev ,67335108,Un-Aided,Non-Autonomous
"Jaywant College of Engineering & Management, Kille Macchindragad Tal. Walva",Pune,Rural,"GAT No 329/1, Kille Macchindragad, 
Tal. Walwa Dist. Sangli",Sangli,8605480504,contact@sspmjcem.com,www.sspmjcem.com,Mr. Pramod Pawar,266407,Un-Aided,Non-Autonomous
"Holy-Wood Academy's Sanjeevan Engineering and Technology Institute, Panhala",Pune,Rural,"Sanjeevan Knowladge City, Somwarpeth (Injole), Panhala, Tal. Panhala. Dist. Kolhapur",Kolhapur,2686601,office@seti.edu.in,www.seti.edu.in,Shri. B. V. Kumbhar,2686600,Un-Aided,Non-Autonomous
"Sharad Institute of Technology College of Engineering, Yadrav(Ichalkaranji)",Pune,Rural,"Gat No.525 & 473/A, Yadrav, Tal. Shirol, Dist: Kolhapur",Kolhapur,253016,contact@sitcoe.org.in,www.sitcoe.ac.in,Shinde D D,253001,Un-Aided,Non-Autonomous
"Abhinav Education Society's College of Engineering and Technology (Degree), Wadwadi",Pune,Urban,"S. No 209, At Post - Wadwadi, Tal - Khandala, Dist - Satara",Satara,286109,abhinavengineering@yahoo.com,www.abhinavengg.org,Mrs.Yadhav Sunita A.,286109,Un-Aided,Non-Autonomous
"K.J.'s Educational Institute's K.J.College of Engineering & Management Research, Pisoli",Pune,Rural,"Survey No. 25/27, Post Yevalewadi, Village Pisoli, Near Bopdev Ghat, Near Hotel Garwa, Tal. Haveli. Dist. Pune",Pune,65789009,principalkjcoemr@gmail.com,www.kjei.edu.in,SANDIP PRALHAD PANCHBHAI,26934417,Un-Aided,Non-Autonomous
"Vidya Vikas Pratishthan Institute of Engineering and Technology, Solapur",Pune,Urban,"72/2 B, Pratap Nagar, Soregaon-Dongaon Road, Solapur",Solapur,6054555,vvpiet@rediffmail.com,www.vvpengineering.org,Mr. M. B. Patil,6452555,Un-Aided,Non-Autonomous
"Shree Gajanan Maharaj Shikshan Prasarak Manda'l Sharadchandra Pawar College of Engineering, Dumbarwadi",Pune,Rural,"At Dumberwadi, Post Khamundi(Otur), Tal. Junnar Dist. Pune",Pune,239203,principalspoce09@gmail.com,www.spcoe.in,Benke Vishal Chandrakant,239202,Un-Aided,Non-Autonomous
"D. Y. Patil College of Engineering, Ambi, Talegaon, Maval",Pune,Rural,"A/P Ambi, Talegaon, Maval, Dist.Pune",Pune,02114306,ddypea@gmail.com,www.dyptc.com,SHRI. Bhavanrao Gaikwad,306228,Un-Aided,Non-Autonomous
"Rajgad Dnyanpeeth's Technical Campus,Dhangwadi, Bhor",Pune,Rural,"S.No. 237, Dhangwadi, Tal. Bhor. Dist.  Pune ",Pune,282556,scscoe@gmail.com,www.rajgad.edu.in,Mr. Goraknath D. Jagtap,282556,Un-Aided,Non-Autonomous
"Alard  Charitable Trust's Alard College of Engineering and Management, Pune",Pune,Urban,"Sr. No. 50, Marunji, Tal-Mulshi, Nr. Rajiv Gandhi IT Park, Hinjewadi, Dist. Pune",Pune,66523700,info@alardinstitutes.com,www.alardinstitutes.com,Mr.B.B.Chavan,66523702,Un-Aided,Non-Autonomous
"Shri Pandurang Pratishtan, Karmayogi Engineering College, Shelve, Pandharpur
",Pune,Rural,"G. No. 125, 124, A/P Shelve, Tal. Pandharpur. Dist. Solapur",Solapur,250310,kecmailbox@rediffmail.com,www.karmayogiengg.com,WALAKE G.D.,250301,Un-Aided,Non-Autonomous
"Sinhgad Technical Education Society's Sinhgad Institute of Pharmaceutical Sciences , Lonavala",Pune,Rural,"S.No. 309/310, Kusgaon (Bk.), Off. Mumbai-Pune Expressway, Lonavala, Tal- Maval, Dist - Pune - 410401",Pune,673322,sips@sinhgad.edu,www.sinhgad.edu,Mr. Somnath B. Nalawade,673324,Un-Aided,Non-Autonomous
"Bharti Vidyaapeeth's Jawaharlal Nehru Institute of Technology, Pune",Pune,Urban,"Pune Satara Road,  Dhanakawadi, Katraj Pune , 411043",Pune,24372434,bvjniot@bharatividyapeeth.edu,www.bvjniot.bharatividyapeeth.edu,--,24379467,Un-Aided,Non-Autonomous
"Poona District Education Association's, Institute of Technology,Hadpsar,Pune",Pune,Urban,"A.M. COllege Campus, Mahadeo Nagar, Manjari Road, Hadapsar,Pune-411028",Pune,26990602,iot@pdeapune.org,www.pdeaioth.in,Rakhunde K N ,26992415,Un-Aided,Non-Autonomous
"Nutan College of Engineering and Research, Talegaon Dabhade Tal. Maval, Pune",Pune,Urban,"Vishnupuri,Talegaon Dabhade(St.), Tal.Maval District. Pune ",Pune,228175,ncerpune@gmail.com,www.ncerpune.com,Mr.Samadhan Kumbhar,228175,Un-Aided,Non-Autonomous
"Bharati Vidyapeeth's Institute of Technology, Palus, Sangli",Pune,Rural,"Atpost:Palus,Tal:Palus, Dist:Sangli 416310",Sangli,228008,mmsdeshmukh@rediffmail.com,www.iotpalus.bharatividyapeeth.edu,Mr. Kulkarni H.R,228585,Un-Aided,Non-Autonomous
"Shri Jain Vidya Prasarak Mandal's Rasiklal M. Dhariwal Institute of Technology, Chinchwadgaon, Pune",Pune,Urban,"Shri Fattechand Marg Pune , 411033",Pune,98228894,rmdiot@gmail.com,www.rmdiot.com,Deshpande A A,27353516,Un-Aided,Non-Autonomous
"Sai Charitable Trust, Indira Institute Of Diploma Engineering(Poly), Sasure, Tal. Barshi",Pune,Rural,"Flat No. 67, At Post Sasure ( Bairag )Solapur_Barshi Highway, Barshi, Solapur 413402",Solapur,240700,ssctiide@gmail.com,www.iidepoly.in,Mr.Shinde D.B.,240700,Un-Aided,Non-Autonomous
"Vidyavardhini Charitable Trust's Abhaysinhraje Bhonsle Institute of Technology, Shahunagar- Shendra, Satara",Pune,Rural,"Gat No. 282, 290 & 291 Shendre Satara  415001",Satara,9822607137,abitsatara@rediffmail.com,www.abitsatara.com,MR. BHOSALE SOPAN SHIVAJI,9822607137,Un-Aided,Non-Autonomous
"Dinkarrao K. Shinde Smarak Trust, Dr. A.D. Shinde Institute Of Technology, Gadhinglaj",Pune,Rural,"At Post-Bhadgaon, Taluka Gadhinglaj, Dist. Kolhapur  416502",Kolhapur,250457,principal_dads@rediffmail.com,www.adshindeit.org,Mr. S. M. Mhaldar,250656,Un-Aided,Non-Autonomous
"Sharad Institute of Technology Polytechnic, Yadrav( Ichalkaranji)",Pune,Rural,"Jay-Sangli Naka, Yadrav-Ichalkaranji, Shirol, Kolhapur  416121",Kolhapur,253053,contact@sitpolytechnic.org,www.sitpolytechnic.org,Mr.Wasim Ibrahim Shaikh,253050,Un-Aided,Non-Autonomous
"Shriram Institute Of Engineering & Technology, (Poly), Paniv",Pune,Rural,"Paniv, Taluka Malshiras, Dist. Solapur 413113",Solapur,274211,sietpoly@gmail.com,www.sietpaniv.org,Mr Chougule Nayankumar Babanrao,274055,Un-Aided,Non-Autonomous
"Loknete Ma.Hanumantrao Patil Charitable Trust, Adarsh Institute of Technology (Poly), Khambale",Pune,Rural,"Gat No.421,At Post Khambale, Vita, Taluka Khanpur, Dist. Sangli  415311",Sangli,9970832675,aitp0991@rediffmail.com,www.aitpolytechnic.org,Mr.Shinde S.V,229191,Un-Aided,Non-Autonomous
"Shree Santkrupa Shikshan Sanstha, Shree Santkrupa Institute Of Engineering & Technology, Karad",Pune,Rural,"Gat No.716,Ghogaon,(Shivajinagar),Tal.Karad Satara , 415111",Satara,223096,ssietdegree@gmail.com,www.sietghogaon.org,Shri Patil Santosh Vishrant,257309,Un-Aided,Non-Autonomous
"Swami Vivekananda Pratisthan, Swami Vivekananda Institute Of Technology,Khed, Solapur",Pune,Rural,"Gat No.16/1,Solapur -Barshi Road,Khed,North  Solapur 413225",Solapur,2911025,svp_sol@rediffmail.com,www.svitsolapur.org,MR. SAMADHAN DAGADU WADANE,2911026,Un-Aided,Non-Autonomous
"Swami Vivekananda Shikshan Sanstha, Dr. Bapuji Salunkhe Institute Of Engineering & Technology,Kolhapur",Pune,Urban,"2130, E Ward, Kolhapur  416003",Kolhapur,2658613,bsieat@gmail.com,www.bsiet.org,Mr. Amit Aba Awad,2658610,Un-Aided,Non-Autonomous
"Vivekanad Institute of Technology Padmbhushan Vasantdada Patil College of Architecture, Pune",Pune,Rural,"Sr. No.274/2, 275/2,282, Aditya Nisarg, At Post Pirangut, Taluka Mulshi, District Pune",Pune,20291308,pvpcoapune@gmail.com,www.pvpcoapune.com,Santosh P.Patil,20291299,Un-Aided,Non-Autonomous
"Maharashtra State  Institute of Hotel Management & Catering Technology,Pune",Pune,Urban,"412-C,K.M.Munshi Road, Shivaji Nagar Pune  411016",Pune,25676640,msihmcttpo@gmail.com,www.msihmctrs.in,GADE RAHUL ARUN,25676640,Un-Aided,Non-Autonomous
"Samarth Education Trust's Arvind Gavali College Of Engineering Panwalewadi, Varye,Satara.",Pune,Rural,"Gat. No-247,A/P-Panwalewadi Post Varye,Tal-Satara 415015",Satara,200100,agcenggsatara@gmail.com,www.agce.sets.edu.in,Kanase N.U.,200100,Un-Aided,Non-Autonomous
"Suryadatta Educational Foundation, Suryadatta Institute of Business Management and Technology, Pune",Pune,Rural,"Bldg No. 2, S.No.342, Patil Nagar, Bavdhan BK, Pune. 411030",Pune,67901300,support@suryaydatta.edu.in,www.sibmt.org,Mrs. Savita Matane,67901300,Un-Aided,Non-Autonomous
"College Of Engineering, Vairag Tal. Barshi",Pune,Rural,"At/p- Sasure- Vairag On Solapur Barshi State HighWay Tal-Barshi Solapur , 413402",Solapur,240700,collegeofengineeringvairag@gmali.com,www.coevairag.org,Shinde D.B.,240700,Un-Aided,Non-Autonomous
"Institute of Technical Education, Research and Management, Akurdi",Pune,Urban,"Sectro No.28, PCNTDA,  Akurdi, Pune  411044",Pune,27650276,itermakurdi@gmail.com,www.pdeaitermakurdi.org,Mrs Mohini V. kadam,27650788,Un-Aided,Non-Autonomous
"Shriram Institute Of Engineering And Technology Centre, Paniv",Pune,Urban,"At/P-Paniv, Tal-Malshiras, Dist-Solapur 413113",Solapur,274222,principalsietc@gmail.com,www.sietc.org,CHANDANSHIVE DATTATRAY GANGADHAR,274044,Un-Aided,Non-Autonomous
"D. Y. Patil Institute of Engineering and Technology, Ambi",Pune,Rural,"S.No. 124,126, At/Post Ambi, M.I.D.C. Road, Talegaon, Taluka-Maval, Dist Pune 410506",Pune,306229,ddypea@gmail.com,www.dyptc.com,SHRI. Bhavanrao GAIKWAD,306229,Un-Aided,Non-Autonomous
"Institute Of Knowledge-College Of Engineering, Pimpale - Jagtap",Pune,Rural,"Pimpale - Jagtap , Tal. Shirur , District - Pune.  412208",Pune,673333,principal.iok@gmail.com,www.iokcoe.ac.in,Mr.awargand Vinod B,673304,Un-Aided,Non-Autonomous
"I.S.B.& M. School of Technology, Nande Village",Pune,Rural,"Survey No.44/1, 44/1/2, Nande Village Taluka Mulshi , Pune  411042",Pune,25754618,isbm.engg@isbm.ac.in,www.isbmsot.org,Ankush H. Kusmude,25754676,Un-Aided,Non-Autonomous
"Universal College of Engineering & Research, Sasewadi",Pune,Rural,"Gat No. 430, Sasewadi, Pune",Pune,220000,preranap.pune@gmail.com,www.ucoer.edu.in,Pravin D Dhotre,021132,Un-Aided,Non-Autonomous
"KJEI's Trinity Academy of Engineering, Yewalewadi, Pune",Pune,Rural,"Svy.NO.25&27,At pisoli,Post Yevalewadi,Tal-Haveli,Bopdeo Ghat,Pune  411048",Pune,69739009,estb.pcoemr@gmail.com,www.kjsedu.com,Anil B.Chorge,8446091199,Un-Aided,Non-Autonomous
"S K N Sinhgad College of Engineering, Korti Tal. Pandharpur Dist Solapur",Pune,Rural,"At Post Korti,Pandharpur - Karad road,  Tal-Pandharpur, Dist-Solapur",Solapur,250103,principal@sknscoe.ac.in,www.spspm.org,S. H. KARANDE,250146,Un-Aided,Non-Autonomous
"Ninaidevi Shikshan Prasarak Mandal,Shri. Shivajirao Deshmukh Institute of Technology, Shirala, Sangli ",Pune,Rural,"Red Batish Shirala, Sangli   415408",Sangli,285555,principal.ssdit@gmail.com,www.ssdit.org,Mr.R.B.Patil,285556,Un-Aided,Non-Autonomous
"Dr. D. Y. Patil School OF Engineering, Lohegaon, Pune",Pune,Urban,"Dr. D.Y. Patil Knowledge City, Charholi (Bk.), via Lohegaon, Pune",Pune,67077922,mankar.vidyanand@dypic.in,www.dypic.in,Mankar Vidyanand,67077922,Un-Aided,Non-Autonomous
"Sinhgad Technical Education Society's S.K.N. Sinhgad School of Business Management, Ambegaon, Tal. Haveli Dist. Pune",Pune,Rural,"10/1, Ambegaon(Bu.), Tal- Haveli, Pune. 411041",Pune,24354036,director_sknsbm@sinhgad.edu,www.sinhgad.edu,Mr. Mahesh Shinde,24354036,Un-Aided,Non-Autonomous
"International Institute of Information Technology (I²IT), Pune.",Pune,Rural,"P-14, Rajiv Gandhi Infotech Park, Hinjawadi, Pune  411057",Pune,22934013,principal@isquareit.edu.in,www.isquareit.edu.in,Mr. Dinesh Joje,22933441,Un-Aided,Non-Autonomous
"JSPM Narhe Technical Campus, Pune.",Pune,Urban,"S.No.12/2/2, 14/9, Narhe, Pune 411041",Pune,00,director.jspmntc@gmail.com,jspmntc.edu.in,Mr. Nitin Jalindar Mukane,24608701,Un-Aided,Non-Autonomous
"Yashoda Technical Campus, Wadhe, Satara.",Pune,Rural,"S.No.242/1, At post Wadhe,Tal.& Dist. Satara.  415011",Satara,271240,principalengg_ytc@yes.edu.in,www.yes.edu.in,Mr. Kishor Rajendrakumar Shinde,271239,Un-Aided,Non-Autonomous
"Sahyadri Valley College of Engineering & Technology, Rajuri, Pune.",Pune,Rural,"A/P Rajuri, Taluka-Junnar, Dist-Pune. 412411",Pune,75680000,sahyadrivalleycollege@gmail.com,www.sahyadrivalleycollege.com,Mr.P.Balaramudu,97675800,Un-Aided,Non-Autonomous
"Shree Ramchandra College of Engineering, Lonikand,Pune",Pune,Rural,"Gat No. 351 & 333/1 At post Lonikand, Taluka Haveli, Dist. Pune  412216",Pune,26659999,srcoepune@gmail.com,www.srespune.org,Mr. B. G. Chaudhari,26659999,Un-Aided,Non-Autonomous
Phaltan Education Society's College of Engineering Thakurki Tal- Phaltan Dist-Satara ,Pune,Rural,"Survey No.31(Part), Thakurki, Tal. Phaltan, Dist.Satara.  ",Satara,220339,coeprincipal@yahoo.co.in,www.coephaltan.edu.in,D. B. Gore,220339,Un-Aided,Non-Autonomous
"Suman Ramesh Tulsiani Technical Campus: Faculty of Engineering, Kamshet,Pune.",Pune,Rural,"Kamshet, Taluka Maval, Dist. Pune 410405",Pune,264106,principal@srttc.ac.in,www.srttc.ac.in,Prof. Girish N. Matre,264101,Un-Aided,Non-Autonomous
"SKN Sinhgad Institute of Technology & Science, Kusgaon(BK),Pune.",Pune,Rural,"Gat No.309, Kusgaon Budruk, Opp. Pune Mumbai Express Highway, Kusgaon, Lonavala, Pune.  410401",Pune,673225,principal.sknsits@sinhgad.edu,www.sinhgad.edu,Mr. Vijaykumar Kisan Gangthade,673391,Un-Aided,Non-Autonomous
"Flora Institute of Technology, Khopi, Near Khed Shivapur Toll Plaza, Pune",Pune,Rural,"49/1, Khopi, Nr. Khed-Shivapur Toll Plaza, Off Pune-Banglore Highway, Taluka-Bhor,Dist.Pune , 412205",Pune,203061,flora.education@gmail.com,www.flora.ac.in,Rahul Padalkar,203060,Un-Aided,Non-Autonomous
"NBN Sinhgad Technical Institutes Campus, Pune",Pune,Rural,"10/1, Ambegaon Budruk, Tal.Haveli, Dist.Pune. 411041",Pune,24355041,nbnssoe@sinhgad.edu,www.sinhgad.edu,MR SANTOSH D PATOLE,24355042,Un-Aided,Non-Autonomous
"D.Y.Patil Education Society's,D.Y.Patil Technical Campus, Faculty of Engineering & Faculty of Management,Talsande,Kolhapur.",Pune,Rural,"G.No. 85, Talasande, Tal- Hatkangle, Kolhapur  416112",Kolhapur,9545719599,engg.dyptc@gmail.com,www.dyptechnicalcampus.com,Shri Bhagaje Prakash Mallappa,9545719599,Un-Aided,Non-Autonomous
"Bhagwant Institute of Technology, Barshi",Pune,Urban,"Gat No. 1242/2, Tadsoundane Road, Barshi. Solapur.413401",Solapur,220031,bitbarshi6781@gmail.com,www.bitbarshi.edu.in,Budruk P.V.,220070,Un-Aided,Non-Autonomous
"Sahakar Maharshee Shankarrao Mohite Patil Institute of Technology & Research, Akluj",Pune,Rural,"At Shankar Nagar, Akluj, Post Yashwant Nagar, Dist. Solapur",Solapur,223548,smpcht@gmail.com,www.smsmpitr.org,Ms. Magar Megha Abhaysingh,223548,Un-Aided,Non-Autonomous
"Dr. D. Y. Patil School of Engineering & Technology,  Charholi(Bk), Via Lohgaon, Pune",Pune,Urban,"Dr. D Y Patil Knowledge City, Charholi(Bk), Via-Lohgaon,  Pune 412105",Pune,2067077931,principalsoet@dypic.in,www.dypic.in,Mr. Vidyanand Mankar,2067077931,Un-Aided,Non-Autonomous
"Dr. D. Y. Patil Educational Academy's, D.Y.Patil School of Engineering Academy, Ambi",Pune,Rural,"S.No 124,126 At/Post Ambi, Talegaon Dhabade, Taluka-Maval, Dist Pune Talegaon Dabhade, Tal. Maval Dist. Pune 410506",Pune,306230,ddypea@gmail.com,www.dyptc.com,shri. B. S. Gaikwad,306230,Un-Aided,Non-Autonomous
"Shri.Someshwar Shikshan Prasarak Mandals, Someshwar Engineering College, Someshwar Nagar",Pune,Rural,"Gat No. 53, Waghalwadi, Post Someshwar nagar, Tal. Baramati, Dist. Pune.",Pune,283185,ajay.deshmukh@rediffmail.com,www.secsomeshwar.ac.in,mr. Mohite S.R.,02112283,Un-Aided,Non-Autonomous
"Dnyanshree Institute Engineering and Technology, Satara",Pune,Rural,"A/p Sonvadi-Gajvadi, Sajjangad Road, Tal Satara, Dist. Satara.",Satara,206566,rwmct.satara@gmail.com,www.dnyanshree.edu.in,Mr. Gosavi P.M.,206563,Un-Aided,Non-Autonomous
"Shivganga Charitable Trust, Sangli Vishveshwarya Technical Campus, Faculty of Diploma Engineering, Patgaon, Miraj",Pune,Rural,"Patgaon, Miraj- Pandharpur Road, Miraj Dist.Sangli.",Sangli,2276203,shivgangavtc@gmail.com,www.shivgangavtc.org,Mr.A.B.Jamdade,2276202,Un-Aided,Non-Autonomous
"Dr. D.Y.Patil Institute of Engineering, Management & Reseach, Akurdi, Pune",Pune,Urban,"Sector 29, PCNTDA, Pradhikaran, Akurdi, Pune",Pune,27654470,principal.dypiemr@gmail.com,www.dypiemr.ac.in,Mr.Y K Patil,27656566,Un-Aided,Non-Autonomous
"Sant Gajanan Maharaj College of Engineering, Gadhinglaj",Pune,Rural,"Site Chinchewadi, Tal.GAdhinglaj, Dist. Kolhapur.",Kolhapur,275581,sgmcoe@gmail.com,www.sgmrh.com,Desai Rahul Shivajirao,275581,Un-Aided,Non-Autonomous
"Keystone School of Engineering, Pune",Pune,Rural,"Sr.No.305/7, 306, 307/5 & 308/21 Urli Devachi, Pune",Pune,64003200,prashantkasabe@gmail.com,www.shalakafoundation.com/ www.keystoneschoolofengineering.com,Prashant Kasabe,64003400,Un-Aided,Non-Autonomous
"Shivganga Charitable Trust, Sangli Vishveshwarya Technical Campus, Faculty of Degree Engineering, Patgaon, Miraj",Pune,Rural,"Patgaon, Miraj- Pandharpur Road, Miraj Dist.Sangli.",Sangli,2276203,shivgangavtc@gmail.com,www.shivgangavtc.org,Mr.A.B.Jamdade,2276202,Un-Aided,Non-Autonomous
"Vidya Prasarini Sabha's College of Engineering & Technology, Lonavala",Pune,Rural,"Gat No. 685, Mouje-Waksai, Tah- Maval, Dist Pune.",Pune,246002,vpscet@gmail.com,www.vpscet.com,Deepak. D. Gosavi,246002,Un-Aided,Non-Autonomous
"Shri Chimasaheb jagdale Institute of Technology, Narsobawadi, Tal.Shirol, Kolhapur",Pune,Rural,"ATPOST NARSOBAWADI TAL. SHIROL, Dist KOLHAPUR",Kolhapur,270571,scjiot@gmail.com,www.scjit.ac.in,MR.SANJAY N.RAJPUT,270571,Un-Aided,Non-Autonomous
"Pimpri Chinchwad Education Trust's Pimpri Chinchwad College Of Engineering And Research, Ravet",Pune,Urban,"Survey No.10, Laxmi Nagar, Ravet Plot No. B of 110(z), 110(s), Haveli, Pune
",Pune,7744898844,pccoer.ravet@gmail.com,www.pccoer.com,Mr. Prakash Yeole,8237238080,Un-Aided,Non-Autonomous
"Dr.D.Y.Patil College Of Engineering & Innovation,Talegaon",Pune,Rural,"Sr.No.27/A/1/2k, Near Talegaon Railway Station, A/P Varale, Talegaon, Tal-Maval,Dist Pune",Pune,2114667928,principal@dypatilef.com,www.dypatilef.com,Vishal Padawale 9665441599,2114667928,Un-Aided,Non-Autonomous
"Dr. D Y Patil Pratishthan's College of Engineering, Kolhapur",Pune,Urban,"R.S.No.865, A-Ward Salunke Nagar, Kolhapur",Kolhapur,9823152996,dype472.ec@unishivaji.ac.in,coes.dypgroup.edu.in,Mr.Suyog Vilas Tate -Patil,2320914,Un-Aided,Non-Autonomous
"Army Institute of Technology, Pune",Pune,Urban,"Pune-Alandi Road, Dighi Hills, Pune ",Pune,7249250185,ait@aitune.edu.in,www.aitpune.com,R. P. Ambike,7249250184,Un-Aided,Non-Autonomous
